{"type":"Topology","arcs":[[[8049,8575],[52,67],[17,34],[14,65],[0,79],[-9,58],[-23,96],[-22,62],[-37,72],[-55,84],[-200,257],[-22,35],[-4,40],[15,26],[231,200],[101,79],[132,42],[47,27],[63,72],[56,108],[23,87],[1,80],[-13,148],[6,59],[-17,58],[-41,42],[-102,65],[-11,58],[3,70],[-15,67],[-32,50],[0,25],[31,54],[88,95],[15,54],[1,73],[71,36],[35,29],[9,28],[-14,62],[-75,116],[11,13],[102,50],[39,14],[19,42],[-2,67],[63,72],[49,69],[50,46],[57,13],[22,14],[49,104],[21,57],[49,4],[29,20],[42,51],[36,33],[66,32],[19,18],[-81,147],[-39,56],[9,83],[-26,53],[-26,36],[-16,49],[-75,61],[-9,46],[38,36],[-15,64],[-61,78],[-4,26],[51,118],[74,102],[71,54],[19,32],[-26,49],[-56,73],[-58,30],[-17,63],[-60,45],[-23,53],[6,93],[-3,63],[-23,48],[-2,58],[-38,12],[-29,34],[-29,68],[-64,27],[-146,16],[-52,-15],[-74,90],[-51,29],[-77,-22],[-44,4],[-109,23],[-114,30],[-76,36],[-24,27],[-7,38],[16,47],[-1,37],[-21,58],[-29,62],[-53,20],[-22,25],[-66,132],[-95,21],[-27,43],[-49,38],[-16,64],[-9,13],[-81,55],[-30,48],[-73,25],[-21,52],[24,113],[-18,58],[-42,61],[-68,37],[-25,32],[-50,19],[-58,-23],[-50,12],[-13,47],[31,132],[17,32],[55,37],[42,19],[24,28],[25,58],[-53,136],[-16,22],[4,29],[18,12],[83,31],[19,15],[25,47],[57,67],[19,37],[1,29],[-48,109],[43,98],[-14,38],[-60,40],[-1,51],[-56,64],[-113,-45],[-80,7],[-28,20],[-20,-21],[-83,-14],[-70,66],[-34,-29],[-34,22],[-6,63],[7,75],[-1,60],[24,52],[33,52],[12,56],[7,77],[-14,63],[-50,86],[-96,-39],[-99,-22],[-239,-64],[-11,-17],[6,-32],[-19,-3],[-29,31],[-58,-5],[-166,4],[-254,44],[-167,22],[-302,8],[-134,22],[-137,-1],[-45,7],[15,34],[72,71],[112,96],[0,26],[-33,76],[122,112],[55,86],[8,28],[81,110],[12,28],[-12,60],[-5,86],[96,10],[0,-79],[14,-60],[99,5],[33,-9],[38,27],[27,32],[15,44],[6,63],[-56,121],[-21,36],[-103,93],[-16,25],[-38,133],[-8,69],[-36,143],[-7,45],[-18,28],[-49,30],[-29,6],[-89,-5],[-107,-42],[-40,-46],[-45,1],[-23,27],[-75,-61],[-42,-2],[-96,14],[-76,27],[-27,71],[-6,42],[-39,30],[-57,120],[-25,24],[-76,50],[-60,2],[-12,10],[0,33],[17,99],[-15,37],[3,37],[19,24],[32,0],[-1,-82],[25,-76],[67,-30],[76,3],[101,-30],[7,-38],[37,-29],[141,-4],[92,-10],[38,-24],[44,2],[78,-13],[135,-5],[63,16],[76,9],[68,35],[25,4],[63,-11],[13,89],[25,89],[-20,134],[-74,115],[-1,24],[33,60],[1,25],[-23,33],[4,73],[-27,60],[-5,121],[-62,14],[-55,-41],[-24,-9],[-97,-7],[-33,-15],[-36,6],[-43,-4],[-16,15],[-54,9],[-32,39],[-59,-9],[-48,6],[-27,65],[-48,60],[21,37],[7,54],[-17,58],[6,20],[65,28],[9,33],[-7,51],[7,33],[28,35],[14,54],[-11,33],[7,63],[-22,44],[-3,28],[-19,24],[-70,29],[-79,81],[-6,23],[15,54],[-18,50],[-51,49],[3,36],[-13,23],[-7,76],[-46,38],[-62,-22],[-41,11],[-79,8],[-59,57],[-23,47],[-112,129],[-84,60],[-74,34],[-63,76],[-60,49],[-16,62],[29,78],[31,45],[-14,27],[-96,76],[-2,32],[35,48],[12,50],[42,85],[80,68],[41,3],[57,38],[21,23],[53,24],[155,16],[37,34],[22,69],[15,21],[84,10],[67,47],[26,36],[81,38],[18,62],[22,22],[88,36],[76,-16],[15,-22],[121,-27],[65,-7],[47,-31],[34,-3],[136,35],[11,39],[-4,60],[42,40],[36,53],[37,23],[7,45],[-11,41],[23,38],[8,66],[28,63],[28,35],[9,33],[0,46],[-9,40],[-14,117],[9,48],[-46,125],[-46,103],[-27,89],[-6,59],[17,52],[-4,30],[-73,123],[-52,62],[-10,66],[-45,26],[-18,35],[23,54],[58,95],[23,18],[69,132],[9,91],[32,21],[49,69],[38,22],[46,10],[20,41],[-6,41],[7,38],[19,12],[85,-14],[31,14],[-17,81],[20,156],[-4,34],[11,42],[45,132],[14,56],[44,56],[6,39],[-35,91],[-26,34],[-11,42],[-44,48],[-28,21],[-40,60],[-46,46],[-34,23],[-90,38],[-21,35],[63,85],[41,18],[24,26],[66,138],[4,37],[-20,81],[29,56],[16,75],[63,68],[8,62],[24,30],[14,42],[41,36],[46,19],[42,4],[29,17],[10,43],[90,62],[27,46],[7,108],[34,64],[-2,25],[-26,38],[-12,35],[22,76],[28,24],[8,66],[-3,47],[-24,62],[-6,78],[32,71],[42,61],[18,15],[47,2],[4,19],[-31,42],[-24,93],[19,53],[25,18],[77,-35],[57,-5],[40,15],[14,19],[2,54],[22,54],[-5,29],[16,65],[-7,51],[15,31],[7,72],[10,36],[54,42],[18,54],[64,51],[-19,32],[-11,83],[20,56],[35,53],[-8,43],[-29,23],[-30,57],[15,42],[-11,43],[18,36],[0,63],[88,92],[18,28],[4,30],[-25,52],[28,63],[9,49],[56,57],[14,60],[5,76],[9,25],[4,87],[-48,39],[-118,42],[-16,69],[2,45],[-15,24],[62,102],[-2,18],[-70,27],[-16,30],[22,99],[-4,34],[-45,49],[-32,63],[9,41],[19,22],[76,56],[23,33],[24,73],[50,52],[60,33],[31,26],[13,29],[-23,89],[49,52],[-21,72],[33,67],[32,15],[8,26],[-17,56],[31,96],[61,80],[129,62],[43,13],[-28,108],[2,59],[33,105],[-4,23],[-37,40],[-20,79],[6,77],[-26,23],[-102,28],[-207,19],[-124,6],[-74,45],[-76,39],[-121,89],[-17,35],[5,28],[-12,86],[-39,36],[-49,66],[-5,40],[32,72],[-8,35],[-49,47],[-26,48],[-45,55],[9,44],[-4,40],[-28,50],[0,39],[15,66],[-12,47],[-71,84],[-39,32],[-6,23],[15,80],[42,107],[6,36],[-39,93],[4,27],[50,56],[-17,21],[-138,46],[-36,25],[-22,29],[-5,46],[5,46],[-30,48],[0,42],[60,151],[-3,73],[-14,88],[16,53],[29,44],[70,43],[-28,191],[-16,41],[-19,17],[-100,47],[-28,30],[-35,99],[-33,56],[-11,62],[-53,77],[-13,43],[-42,51],[-8,59],[-16,36],[5,73],[-17,68],[0,78],[-76,66],[-35,62],[-8,45],[-17,34],[59,92],[-7,35],[-25,51],[-13,80],[16,67],[-10,54],[-81,118],[-68,80],[-43,22],[-78,55],[-75,39],[-3,17],[23,50],[58,170],[33,58],[-2,31],[-132,50],[-41,36],[-35,70],[-1,43],[23,71],[33,29],[18,34],[-21,66],[-86,84],[-4,41],[33,53],[5,37],[26,44],[41,50],[15,8],[45,-12],[34,4],[24,18],[33,49],[30,17],[79,21],[51,8],[65,52],[146,113],[52,10],[2,15],[-32,72],[3,65],[-4,41],[9,48],[-17,121],[-20,24],[-23,76],[13,46],[-4,57],[32,81],[-14,38],[26,40],[22,53],[-4,74],[-14,88],[-12,29],[-77,128],[-78,32],[-26,17],[-10,44],[-43,56],[-2,25],[19,11],[124,-10],[57,22],[30,42],[85,79],[35,49],[56,22],[17,16],[-1,72],[-19,44],[26,185],[12,43],[32,26],[21,41],[149,66],[6,50],[91,118],[1,20],[-106,89],[-22,35],[14,55],[41,52],[7,55],[28,31],[87,45],[47,53],[68,39],[2,71],[-7,40],[-60,146],[-22,36],[-24,61],[0,58],[16,29],[63,60],[37,50],[16,84],[18,40],[34,42],[4,27],[36,63],[77,57],[63,26],[45,11],[63,50],[83,23],[56,26],[15,19],[49,91],[30,28],[84,58],[23,35],[0,39],[-41,268],[6,21],[81,84],[72,54],[85,42],[56,39],[10,17],[4,110],[6,35],[-2,89],[47,74],[122,79]],[[7589,41569],[51,-27],[49,-36],[21,-55],[101,-56],[106,-41],[79,-19],[31,28],[140,49],[34,20],[28,32],[56,26],[86,-10],[159,-29],[76,3],[37,13],[72,87],[40,28],[125,44],[118,20],[123,-5],[34,3],[140,63],[33,4],[90,-53],[55,-7],[62,3],[98,-17],[47,-15],[21,-18],[31,-46],[139,-68],[74,-31],[63,-42],[27,-45],[51,-20],[59,3],[47,-5],[94,-33],[40,-50],[79,-68],[29,-32],[47,-19],[79,-6],[53,-12],[32,-15],[90,-63],[123,-59],[41,-9],[99,22],[79,-36],[63,-64],[11,-19],[-10,-27],[-46,-64],[-36,-91],[-13,-107],[-33,-41],[91,-121],[46,-29],[21,-31],[66,-44],[20,-34],[46,-35],[47,-72],[28,-71],[-13,-49],[11,-20],[57,-51],[32,-19],[46,0],[30,16],[98,30],[33,1],[83,-29],[85,9],[37,13],[40,33],[53,70],[35,5],[-6,-51],[-1,-111],[6,-31],[47,-122],[48,-78],[49,-51],[59,-28],[60,-18],[59,-27],[142,8],[102,-5],[72,-11],[96,-43],[71,-60],[32,-16],[81,12],[76,42],[137,143],[45,36],[91,14],[70,-27],[75,-20],[72,-10],[63,-1],[44,30],[41,88],[22,155],[27,68],[97,103],[10,43],[21,46],[25,30],[66,7],[210,-13],[86,17],[-29,27],[7,75],[43,47],[15,41],[-13,41],[46,24],[7,23],[-33,47],[11,18],[49,11],[55,49],[24,65],[38,31],[46,81],[76,50],[104,-7],[58,17],[49,28],[39,11],[41,-7],[53,16],[76,14],[52,-9],[8,77],[60,103],[24,4],[83,-35],[69,-14],[75,3],[20,-27],[63,-34],[80,1],[61,-33],[102,-46],[50,-50],[55,-22],[96,3],[55,17],[74,10],[99,-13],[104,-9],[31,-15],[54,5],[72,-29],[198,-67],[8,-26],[25,-30],[31,-4],[55,-39],[56,-9],[64,5],[82,-8],[74,-20],[25,1],[131,22],[94,10],[23,-12],[1,-44],[107,-89],[47,-59],[-7,-30],[15,-19],[2,-50],[13,-19],[61,0],[53,-59],[36,-72],[74,0],[36,-13],[94,30],[36,-6],[43,-55],[165,-174],[768,-1214],[998,-1581]],[[19757,37206],[-428,-541],[-559,-1396],[-613,-1530]],[[18157,33739],[-1054,-303],[-767,-476],[-462,-1269],[-575,-1582]],[[15299,30109],[-1491,-818],[-142,-956],[-254,-423],[31,-478],[-328,-512],[-638,-1802]],[[12477,25120],[-669,-732],[-251,-820],[-315,-476],[-89,-83],[-640,-880],[-466,-682],[-330,-784],[-8,-243],[260,-757],[199,-88],[350,-841],[241,-847],[-51,-426],[179,-426],[459,257],[66,-3],[93,11],[189,29],[141,12],[71,34],[96,-7],[92,-50],[45,52],[84,-47],[16,26],[97,-54],[20,29],[125,-41],[140,-39],[9,13],[103,-26],[23,40],[111,-23],[47,-16],[76,-39],[15,-2],[16,41],[-68,53],[-15,54],[38,30],[51,7],[165,-57],[92,-41],[107,-76],[43,-24],[79,-29],[24,-15],[156,-50],[79,-43],[64,-100],[51,-16],[20,-21],[-31,-58],[-50,-56],[-53,-48],[-7,-30],[66,-23],[71,-36],[57,-70],[69,-49],[43,-74],[19,-127],[78,-118],[48,-28],[17,-29],[67,-80],[25,-42],[34,-76],[-2,-59],[40,-96],[49,-94],[51,-119],[-1,-42],[21,-82],[4,-58],[57,-78],[105,-26],[83,2],[42,27],[28,-40],[15,-4],[34,55],[67,122],[115,-35],[89,-52],[64,-21],[98,2],[33,-18],[40,58],[-9,46],[18,33],[-41,32],[6,33],[56,35],[24,33],[67,4],[43,62],[31,8],[190,-52],[31,34],[77,4],[68,43],[106,-8],[7,66],[-17,35],[-22,17],[-38,-25],[-44,-2],[-55,-21],[-86,4],[15,100],[25,53],[-40,59],[9,39],[25,45],[79,83],[-18,92],[344,84],[81,24],[51,86],[21,50],[27,-12],[1,-75],[22,-26],[26,30],[152,-8],[-6,-94],[6,-12],[51,-2],[35,47],[33,0],[110,-65],[24,-6],[-6,-27],[-58,-7],[-45,-46],[-64,18],[-66,-38],[-33,-31],[5,-20],[40,-8],[32,12],[7,16],[34,-12],[50,-43],[-25,-82],[8,-9],[91,-24],[16,14],[30,-22],[24,26],[46,27],[28,26],[15,29],[15,-5],[-2,-49],[-10,-40],[29,-1],[30,-17],[-7,-16],[31,-20],[37,-4],[40,39],[27,7],[20,-25],[-15,-31],[5,-44],[77,16],[93,-47],[48,4],[66,-13],[54,25],[31,44],[9,64],[-12,36],[82,-5]],[[17654,15992],[77,7],[121,23],[64,45],[65,11],[32,-17],[-10,-35],[-70,-122],[-6,-22],[14,-26],[82,-3],[32,-10],[36,-30],[65,-4],[70,6],[114,-42],[51,-43],[127,63],[57,58],[43,11],[43,21],[68,80],[54,35],[22,4],[64,-20],[46,-3],[12,-56],[42,-24],[59,0],[72,-30],[20,-35],[14,-57],[45,-56],[12,-34],[39,-43],[54,-28],[19,-41],[24,-83],[5,-72],[31,-46],[6,-22],[-15,-90],[-41,-59],[5,-30],[47,-6],[21,-21],[1,-65],[40,-24],[50,-103],[4,-38],[45,-26],[34,-43],[11,-44],[-30,-49],[-5,-24],[32,-47],[14,-40],[-18,-44],[-4,-33],[16,-42],[-40,-7],[-58,-23],[-34,3],[-36,24],[-128,23],[-70,19],[-61,-53],[-70,16],[-63,-47],[-45,-14],[-10,-34],[-28,-23],[-34,-2],[-65,-21],[-61,9],[-79,-7],[-32,3],[-48,-13],[-42,12],[-10,-12],[0,-94],[25,-13],[71,-126],[14,-7],[40,-51],[49,-52],[65,-35],[67,-16],[70,-31],[27,-23],[120,-38],[40,-9],[65,-28],[58,-10],[10,-54],[30,-52],[6,-35],[37,-64],[17,-46],[1,-38],[19,-27],[58,-51],[50,-71],[43,-18],[22,-22],[47,-83],[-1,-84],[33,-50],[-28,-45],[98,4],[43,-48],[18,-56],[-31,-91],[4,-33],[22,2],[36,54],[57,-12],[36,14],[30,26],[43,-19],[-1,-29],[68,30],[46,-25],[22,-39],[23,-9],[193,-43],[19,9],[62,-27],[36,-31],[82,-19],[45,-54],[27,-16],[46,-65],[20,-17],[51,31],[21,31],[17,-1],[20,-38],[62,-40],[12,2],[20,38],[29,2],[25,-19],[32,8],[39,34],[18,44],[29,28],[76,4],[16,7],[23,92],[42,59],[40,22],[68,10],[90,-32],[39,-21],[59,17],[45,27],[10,53],[89,69],[13,58],[-10,35],[-49,72],[-18,123],[19,51],[-16,56],[67,87],[25,51],[-21,39],[61,113],[0,34],[-29,57],[-64,58],[-16,55],[16,60],[51,79],[-3,12],[-54,29],[-17,32],[29,5],[56,-23],[14,3],[-11,41],[-41,3],[-25,18],[11,20],[61,-5],[-6,87],[40,80],[8,37],[62,-13],[31,18],[23,-13],[-6,-27],[20,-36],[-19,-43],[-53,-14],[-38,-64],[-6,-34],[40,-12],[5,-23],[-35,-25],[-36,-55],[-15,-55],[27,-25],[65,18],[17,-15],[-17,-13],[-45,-5],[-8,-17],[17,-15],[-19,-20],[-29,27],[-35,-12],[3,-28],[23,-30],[55,-36],[30,13],[-34,-60],[22,-12],[-19,-33],[7,-24],[-23,-31],[-11,-46],[-33,-25],[26,-41],[-2,-23],[-90,-117],[-5,-24],[15,-32],[-13,-29],[1,-117],[14,-40],[37,-34],[22,-102]],[[21695,13060],[-7,-43],[-41,-22],[-19,-41],[19,-31],[-67,-117],[-44,-13],[-33,-28],[-110,-36],[-80,-51],[-32,-26],[-57,-31],[-55,-54],[-47,-59],[-50,-42],[-2,-39],[56,-11],[22,-15],[-7,-59],[93,-19],[28,-20],[2,-28],[118,-137],[46,-79],[45,-10],[71,-6],[45,-30],[17,-49],[10,-55],[28,-23],[92,9],[28,-9],[26,-41],[8,-33],[10,-114],[0,-53],[14,-108],[-2,-74],[-25,-53],[-37,-41],[-3,-35],[11,-46],[-14,-68],[-32,-43],[-54,-33],[-21,-33],[-61,-14],[-43,-24],[-58,-21],[-60,23],[-27,68],[-55,32],[-21,49],[-60,31],[-19,3],[-18,-20],[-31,-8],[-21,-23],[-64,-45],[-33,-46],[-51,4],[-37,35],[-27,11],[-91,-4],[-28,-11],[-55,10],[-42,-45],[-63,-2],[-20,9],[-36,-11],[-60,9],[-29,-25],[-64,-20],[-34,-20],[-49,2],[-27,13],[-47,-14],[-18,-68],[-19,-42],[-39,-28],[-11,-31],[-58,-82],[7,-37],[-9,-33],[-17,-16],[-39,-7],[-48,-50],[-52,-12],[-55,30],[-46,61],[-69,2],[-76,-5],[-68,-23],[-40,9],[-55,48],[-73,31],[-87,79],[-28,41],[-27,18],[-61,-13],[-42,9],[-39,-15],[-30,-24],[-14,-27],[-49,-19],[-50,-91],[-59,-48],[-75,-36],[-45,-53],[-57,-39],[-18,-22],[-11,-50],[-38,-40],[-14,-25],[-32,19],[-34,0],[-19,-15],[-11,-50],[-26,-26],[-44,-80],[-7,-34],[-25,-28],[-41,-27],[-78,-38],[-14,-50],[12,-28],[-31,-69],[-47,-33],[-50,4],[-80,-32],[-27,13],[-64,-11],[-30,5],[-101,32],[-68,40],[-26,0],[-3,-23],[-25,-49],[14,-65],[-13,-33],[10,-30],[-9,-61],[18,-21],[-8,-64],[-27,-42],[8,-103],[-16,-53],[-39,-18],[-18,-35],[3,-26],[-17,-58],[12,-44],[-65,-45],[-33,-36],[-48,9],[-33,-5],[-25,-19],[-41,-52],[-40,-66],[-82,-57],[-6,-10],[44,-78],[3,-20],[-30,-56],[22,-37],[-12,-49],[7,-32],[-7,-48],[53,-79],[77,-41],[-17,-35],[-51,-81],[-44,-99],[-21,-16],[-66,-23],[-98,25],[-127,-45],[-54,10],[-95,39],[-79,4],[-136,-28],[-104,-34],[-26,-29],[-24,-6],[-161,-12],[-21,25],[7,40],[26,54],[3,37],[-10,70],[-14,45],[-59,34],[-58,19],[-72,66],[-35,49],[-31,21],[-11,-29],[-44,-66],[-21,-9],[-39,5],[-34,-14],[-22,-28],[-39,-26],[-82,-38],[-21,-23],[-3,-54],[6,-106],[-25,-75],[-5,-119],[-14,-118],[-26,-136],[-18,-77],[-30,-31],[-19,-82],[-68,-45],[-44,-103],[-40,-21],[-34,11],[-122,9],[-120,46],[-81,6],[-50,12],[-85,4],[-127,-4],[-35,-12],[-85,-114],[-75,-44],[-76,11],[-220,58],[-12,-2],[-37,-54],[-59,-63],[-46,-29],[-36,-12],[-77,24],[-96,5],[-66,-3],[-70,17]],[[14041,7396],[-100,81],[-43,45],[-67,16],[-37,35],[-32,94],[10,54],[66,22],[8,26],[-6,41],[20,90],[18,21],[3,29],[-15,47],[-31,51],[-13,45],[4,92],[-10,39],[-61,44],[31,58],[0,74],[20,34],[10,40],[-6,53],[10,26],[-11,42],[32,76],[30,29],[-13,5],[-104,-23],[-53,-25],[-80,-62],[-62,-19],[-82,-43],[-52,-65],[-55,-140],[-32,-39],[-38,-21],[-10,-43],[-60,-17],[-31,1],[-56,20],[-28,32],[-43,18],[-41,-21],[-126,-24],[-28,-56],[-42,-48],[-30,-11],[-14,20],[-18,-10],[-16,-44],[-37,-17],[-9,-25],[-31,-18],[-65,-3],[-44,-36],[-38,-22],[-29,-97],[-48,-14],[-95,12],[-7,19],[-83,26],[-29,23],[-40,-9],[-68,30],[-58,-6],[-31,-12],[-53,-42],[-80,-23],[-45,-34],[-74,36],[-105,-57],[-39,31],[-58,-105],[-34,-21],[5,-33],[-60,-43],[-12,-42],[-58,-22],[17,-51],[-21,-64],[-38,-41],[-4,-51],[29,-64],[-16,-22],[-64,-37],[-76,-10],[-69,-73],[-3,-13],[52,-100],[-9,-13],[-162,8],[-84,-22],[-108,-68],[-81,-56],[-80,-46],[-24,-4],[-58,-30],[-139,-11],[-46,2],[-108,150],[-78,22],[-120,62],[-111,41],[-146,16],[-26,7],[-82,57],[-42,0],[-115,16],[-82,-24],[-36,1],[-15,19],[39,88],[-14,60],[16,70],[15,28],[47,46],[41,22],[120,29],[17,15],[6,32],[3,87],[-38,61],[-102,101],[-61,23],[-119,74],[-35,13],[-51,-19],[-72,0],[-26,-30],[-68,-16],[-63,50],[-59,35],[-79,23],[-30,32],[-20,68],[-18,30],[-34,3],[-97,-31],[-34,5],[-74,106],[-29,59],[-12,53],[-30,0],[-33,-18],[-95,6],[-17,11],[-97,96],[-83,57],[-66,39],[-186,85]],[[25149,38942],[-120,592]],[[25029,39534],[1276,-131],[1422,-147],[316,28],[1418,641],[978,442],[-100,1234],[-114,1407],[-114,1407],[-114,1407],[-113,1402],[218,512]],[[30102,47736],[2093,-640],[1675,-512],[434,-133],[588,-180]],[[34892,46271],[274,-534],[116,-1322],[96,-1096],[2198,-684],[775,307],[234,104],[42,-3],[47,-50],[32,-23],[-13,-46],[4,-29],[19,-27],[32,-17],[27,16],[4,35],[21,1],[11,-37],[-17,-55],[0,-97],[31,-41],[15,-42],[30,-30],[-5,-55],[76,-17],[61,-29],[23,26],[55,31],[45,-2],[84,43],[86,-49],[132,-34],[67,1],[5,18],[10,129],[40,26],[31,39],[17,7],[125,-14],[45,9],[106,-17],[61,-3],[49,11],[48,-17],[318,-6],[9,65],[65,4],[368,-15],[80,8],[25,76],[-5,64],[4,42],[34,42],[28,83],[68,72],[65,-16],[34,-19],[75,-62],[20,-32],[34,-15],[31,-34],[116,-35],[39,6],[73,36],[18,26],[0,39],[12,30],[49,-8],[80,-76],[16,-21],[0,-28],[18,-24],[53,7],[48,19],[75,60],[109,106],[15,59],[29,26],[20,-30],[23,-68],[-40,-60],[-23,-101],[1,-66],[23,-46],[15,-11],[52,-10],[41,-81],[11,-56],[58,-26],[27,-28],[86,-21],[15,-52],[28,-16],[86,15],[80,20],[62,-14],[96,7],[68,-43],[45,-14],[41,-30],[52,10],[35,-6],[86,-37],[53,-56],[75,-71],[33,-59],[79,-98],[13,-32],[40,-44],[10,-49],[1,-130],[-21,-58],[8,-27],[23,-21],[54,-13],[21,-25],[2,-96],[9,-39],[2,-166],[4,-40],[43,7],[92,-20],[139,-62],[62,-9],[13,42],[47,93],[64,73],[54,97],[14,34],[6,66],[-21,99],[-41,55],[-11,50],[3,37],[15,45],[32,50],[63,61],[17,26],[-10,59],[9,13],[44,12],[55,25],[61,52],[-33,75],[-71,117],[-82,150],[0,19],[50,50],[7,46],[-48,71],[-18,42],[27,-1],[107,-24],[36,-1],[49,-21],[-9,-83],[15,-22],[8,-61],[102,-45],[46,-85],[-11,-70],[27,-45],[28,-99],[74,-56],[35,1],[42,14],[24,-5],[67,-48],[107,-57],[56,-16],[63,-10],[44,10],[46,-5],[72,11],[55,-21],[33,-51],[60,-65],[58,-22],[52,-50],[23,-31],[95,-32],[115,-4],[38,-28],[30,-95],[40,-70],[95,-249],[17,-82],[3,-100],[15,-35],[58,-62],[22,-65],[-3,-53],[6,-106],[38,-62],[93,-45]],[[45981,40824],[-21,-123],[16,-72],[-5,-119],[15,-38],[0,-32],[-26,-76],[-35,-38],[-33,-13],[-42,9],[-26,26],[-118,62],[-27,-3],[-61,-55],[-36,-5],[-52,17],[-32,-4],[-37,-43],[-30,-20],[-48,-5],[-51,-33],[-88,-90],[-18,-33],[-37,-23],[-105,-34],[-72,-63],[-31,-46],[-64,-16],[-59,0],[-59,13],[-51,31],[-40,61],[-111,47],[-31,-4],[-30,-19],[-62,3],[-159,0],[-57,-11],[-79,21],[-46,36],[-44,10],[-40,42],[-65,23],[-27,27],[-25,9],[-94,-12],[-52,9],[-84,6],[-101,34],[-38,-7],[-95,-31],[3,-20],[32,-20],[14,-22],[2,-34],[-30,-51],[-113,30],[-53,2],[-73,-19],[-27,-22],[-16,-42],[-29,-22],[-99,-53],[-49,-34],[-15,-38],[10,-31],[-6,-29],[-58,-63],[-27,-20],[-55,-10],[-136,-137],[-31,-25],[-69,-75],[-48,-33],[-51,-46],[-85,21],[-25,-4],[-26,-28],[-67,-11],[-39,-34],[37,-92],[-71,-17],[-43,17],[-40,35],[-83,49],[-47,19],[-55,13],[-45,-42],[-31,-19],[-14,-58],[-21,-40],[-32,-31],[-99,-71],[-57,-77],[-17,-47],[6,-27],[-19,-37],[5,-19],[51,-48],[7,-26],[-34,-95],[9,-45],[-104,-114],[-7,-45],[-26,-34],[-35,-3],[-20,-19],[-15,-69],[-1,-35],[-42,5],[-83,-5],[-39,56],[-33,5],[-36,-18],[-11,-29],[-34,-31],[-57,-28],[-74,-69],[-15,-46],[-22,-33],[-34,-134],[-25,-28],[-89,-21],[-80,12],[-16,-12],[-12,-44],[-17,-5],[-65,23],[-70,-11],[-126,-4],[-66,48],[5,32],[-54,57],[-70,27],[-68,-68],[-133,-176],[-55,-41],[-50,-6],[-29,23],[-21,77],[-19,16],[-63,-101],[-40,-12],[-18,-81],[-124,-171],[53,-34],[-44,-55],[-129,-192],[3,-22],[109,-64],[-6,-11],[178,-99],[113,-66],[-59,-84],[-158,-211],[-25,12],[-36,-36],[-112,65],[-14,-20],[-27,14],[-58,-74],[-58,34],[-8,-11],[-99,60],[55,75],[-305,185],[-14,-16],[-140,88],[-56,-71],[-69,42],[-85,-48],[-85,-102]],[[38640,36961],[-128,127],[-60,-75],[-31,-31],[-24,-51],[10,-111],[-1,-143],[-24,41],[-67,65],[-113,84],[-55,-21],[-16,-34],[-72,-50],[9,-46],[2,-76],[13,-43],[39,-34],[20,-52],[19,-86],[30,-30],[84,-113],[-6,-43],[-43,-15],[-69,-83],[18,-26],[-85,-107],[-95,63],[-9,-7],[-56,37],[-55,-59],[-52,33],[-21,-20],[-21,11],[-101,-114],[-64,-76],[-44,24],[-138,101],[-77,61],[-53,-74],[-39,-75],[6,0],[-37,-66],[-37,15],[-63,-97],[-24,-57],[-45,-59]],[[37065,35649],[-27,-48],[-110,62],[-28,36],[-151,95],[-139,60],[-53,48],[-86,52],[-67,96],[-56,-12],[-34,16],[-39,-7],[-51,16],[-29,37],[-53,32],[-90,-127],[-76,-110],[-120,-162],[-27,-46],[167,-89],[-67,-101],[-45,-50],[35,-39],[-57,-89],[-17,-42],[109,-53],[-24,-41],[-16,-6],[-84,46],[-43,-66],[105,-72],[40,-19],[-42,-70],[-215,113],[-111,-137],[-113,-160],[-13,-26],[14,-32],[-9,-81],[3,-15],[-72,-104],[-89,-114],[-103,-121],[28,-55],[40,-28],[72,-32],[39,-31],[18,-29],[9,-76],[-5,-41]],[[35383,34027],[-151,75],[-17,13],[-87,34],[-40,28],[4,11],[-99,55],[-60,29],[-35,-45],[-43,27],[22,34],[-93,61],[-104,57],[-140,86],[-52,-70],[-23,-8],[-62,-73],[-90,-136],[-68,36],[-62,-80],[-28,-29],[-73,14],[-77,53],[-26,50],[18,24],[-187,137],[-7,-6],[-49,39],[-42,-28],[-21,13],[-17,-10],[-42,29],[-33,-43],[26,-27],[-41,-6],[-15,-13],[28,-37],[12,-47],[7,-118],[9,-24],[-44,-55],[-28,-47],[-7,-40],[-58,-39],[-12,-20],[29,-41],[58,-59],[-10,-18],[-80,-78]],[[33473,33735],[-126,52],[-154,55],[-78,20],[-325,100],[-154,54],[-51,26],[-188,106],[-39,34],[-128,91],[-91,92],[-84,102],[-105,121],[-66,72],[-193,187],[-45,33],[-101,60],[-99,45],[-161,56],[-44,7],[-150,7],[-255,-19],[-294,-8],[-136,13],[-198,56],[-98,24],[-115,11],[-177,5],[-96,-8],[-89,-12],[-98,9],[-43,13],[-78,35],[-49,44],[-84,102],[-39,72],[-45,67],[-48,49],[-30,21],[-82,41],[-101,57],[-121,27],[-100,15],[-91,4],[-125,-5],[-312,-29],[-83,-6],[-80,4],[-49,10],[-199,59],[-102,39],[-111,47],[-87,44],[-224,117],[-582,828],[-916,1302],[-605,859]],[[26744,62326],[65,14],[59,116],[1,30],[-47,106],[-35,28],[-8,56],[25,103],[32,54],[-2,78],[-61,95],[14,73],[-23,43],[17,33],[68,41],[27,34],[52,50],[11,59],[50,102],[31,49],[-16,40],[28,36],[6,30],[-12,44],[17,38],[-3,24],[-37,69],[-52,34],[-23,27],[-5,70],[23,59],[29,33],[38,91],[-3,13],[-39,21],[-9,63],[-13,30],[-34,41],[-29,70],[-32,40],[-49,35],[-22,79],[-52,94],[5,21],[40,27],[56,72],[39,24],[21,26],[69,15],[35,38],[-11,59],[12,22],[97,23],[22,24],[9,40],[-12,47],[1,39],[11,26],[0,103],[15,62],[-6,19],[-62,114],[-2,26],[-22,69],[-48,99],[-57,60],[-17,33],[14,24],[38,25],[69,22],[33,-1],[20,25],[11,47],[51,64],[18,50],[24,36],[0,31],[-20,64],[5,13],[73,16],[28,15],[27,54],[-16,46],[14,49],[-17,25],[-29,16],[-5,51],[-15,41],[2,51],[11,32],[-9,65],[20,56],[-12,57],[7,37],[31,60],[26,86],[43,65],[43,16],[88,-2],[20,-6],[47,-47],[44,-32],[51,-93],[-9,-45],[-40,-65],[4,-61],[81,-98],[47,-44],[66,-24],[73,-5],[48,-35],[62,-17],[132,8],[84,-20],[51,-2],[61,-19],[47,-25],[29,-1],[78,31],[29,0],[68,-41],[74,-5],[85,-36],[141,-28],[98,28],[69,36],[47,36],[35,11],[46,-10],[53,-37],[17,-2],[94,34],[35,-9],[86,-71],[117,-66],[25,-24],[19,-37],[17,-82],[64,-93],[93,-32],[20,-14],[58,-4],[68,17],[26,31],[35,71],[23,14],[49,-7],[46,-43],[38,-15],[32,3],[18,33],[8,61],[29,30],[47,2],[74,-13],[128,-15],[36,-8],[28,-23],[8,-27],[31,-28],[37,-7],[54,7],[60,-7],[68,-18],[76,30],[105,24],[45,-5],[80,-26],[65,-2],[73,-29],[29,-43],[12,-70],[10,-25],[152,-232],[44,-49],[37,-70],[28,-8],[73,19],[68,-1],[38,17],[32,33],[0,19],[-53,103],[-6,42],[41,39],[-16,60],[-2,52],[67,109],[1,22],[-37,46],[-32,169],[13,37],[78,97],[2,24],[-37,50],[-82,72],[-46,22],[-60,139],[5,101],[-27,43],[-45,32],[-18,25],[-20,61],[3,37],[88,108],[60,82],[85,69],[81,51],[44,42],[108,128],[8,35],[0,74],[13,43],[43,49],[69,45],[37,37],[41,26],[39,52],[5,57],[15,37],[104,78],[22,28],[-7,59],[-52,72],[11,58],[-3,95],[-8,15],[-52,41],[-61,115],[-69,174],[6,65],[-9,32],[-58,42],[-31,38],[-10,78],[-66,114],[-46,29],[-33,78],[-35,51],[3,76],[-9,71],[-28,163],[-14,28],[-67,86],[-53,41],[-29,56],[-28,70],[-40,123],[-14,55],[-27,70],[-37,16],[-57,-2],[-34,10],[-27,25],[-44,64],[3,49],[-9,56],[-33,68],[-58,38],[-23,56],[-16,67],[-71,32],[-52,57],[-51,0],[-40,22],[1,61],[33,66],[-5,49],[-72,174],[-58,31],[6,21],[44,39],[23,41],[9,72],[1,94],[-5,55],[7,48],[19,39],[-11,31],[-53,22],[-63,43],[-1,34],[21,79],[5,46],[-10,69],[-30,92],[-24,42],[-33,31],[-5,74],[-24,13],[-121,36],[-46,48],[-10,24],[-2,43],[-43,33],[-13,50],[1,31],[22,82],[3,46],[-24,21],[-71,-14],[-17,13],[-18,41],[-87,126],[-25,58],[10,60],[21,25],[67,50],[2,12],[-100,34],[-25,45],[19,62],[9,57],[-9,19],[-31,3],[-17,17],[-37,87],[1,23],[34,31],[51,20],[14,17],[-34,55],[-18,92],[-18,62],[-4,64],[-32,64],[-63,57],[-6,69],[-63,96],[-38,23],[-213,57],[-47,16],[-59,36],[-101,12],[-49,-11],[-97,0],[-54,32],[-48,59],[-104,4],[-36,11],[-88,55],[-28,32],[-40,100],[-40,18],[-20,43],[1,47],[-21,74],[2,32],[46,51],[29,48],[46,36],[7,60],[33,44],[80,16],[25,41],[7,145],[18,20],[51,23],[15,15],[62,106],[-19,83],[26,20],[90,42],[31,21],[65,5],[37,59],[14,42],[-8,47],[8,31],[24,30],[17,62],[0,69],[29,34],[50,35],[12,40],[36,7],[16,24],[21,80],[29,75],[28,41],[24,12],[119,12],[27,36],[32,58],[7,30],[-12,43],[25,63],[24,31],[62,61],[7,44],[-22,51],[-1,64],[20,56],[-1,24],[-44,64],[5,59],[59,112],[4,26],[-20,57],[16,19],[63,41],[96,23],[76,-1],[65,24],[63,77],[49,21],[73,20],[30,-7],[31,-24],[47,-59],[28,-25],[178,-75],[48,-36],[12,-68],[21,-39],[32,-8],[106,-10],[99,8],[60,29],[35,50],[3,18],[-12,68],[9,31],[0,61],[26,65],[19,74],[12,102],[39,55],[38,41],[33,0],[13,-47],[83,-61],[51,-45],[25,-8],[36,15],[56,10],[83,45],[27,40],[72,34],[38,44],[18,6],[39,-32],[53,-15],[20,-19],[32,3],[55,-14],[45,-29],[50,-57],[44,8],[70,-10],[39,1],[40,-22],[25,4],[43,28],[41,88],[94,54],[79,-5],[67,16],[80,-31],[42,-1],[119,-49],[78,-37],[32,-3],[24,21],[92,-11],[11,-76],[41,-66],[55,9],[37,-6],[51,-48],[25,-74],[73,-118],[15,-50],[23,-43],[10,-57],[-11,-48],[8,-49],[20,-32],[50,-34],[11,-60],[28,-65],[-13,-55],[86,-134],[31,-66],[56,-27],[17,3],[54,39],[37,-7],[47,4],[37,-28],[11,-81],[42,-40],[3,-44],[62,-15],[55,-36],[40,-15],[45,22],[77,9],[40,-11],[16,14],[123,43],[24,-9],[31,-43],[42,-31],[32,-4],[44,-32],[19,-37],[-13,-64],[11,-52],[105,-171],[63,-63],[13,6],[19,63],[36,34],[32,49],[72,16],[57,19],[59,44],[27,7],[74,5],[100,-7],[47,-12],[45,-70],[17,-11],[70,2],[48,-5],[46,-26],[43,-54],[24,-52],[23,-27],[49,-33],[93,-15],[49,-31],[115,-9],[21,3],[54,51],[94,35],[71,77],[51,24],[102,-4],[55,-15],[65,6],[34,-6],[53,-90],[57,-40],[230,-208],[101,-87],[45,-47],[92,-38],[37,-34],[59,-33],[71,-91],[56,-64],[19,2],[51,38],[87,88],[78,26],[213,53],[34,-10],[84,-107],[36,-21],[58,-20],[110,-50],[39,-30],[61,-82],[133,-99],[42,-6],[130,43],[33,6],[123,-8],[138,-35],[47,-19],[188,-104],[229,-93],[73,-54],[14,-33],[-5,-38],[12,-29],[49,-35],[31,-43],[-1,-30],[18,-8],[152,-3],[42,-13],[52,-43],[80,-50],[55,-56],[51,0],[34,-18],[112,-122],[105,-54],[3,-17],[-40,-86],[-2,-46],[37,-62],[18,-12],[-37,-9],[-35,-21],[-163,-188],[-46,-40],[-40,-74],[-23,-80],[-10,-107],[28,-85],[85,-94],[52,-38],[55,-23],[29,-27],[18,-46],[34,-34],[94,-46],[28,-24],[1,-79],[22,-53],[46,-48],[47,-142],[-4,-41],[-21,-74],[3,-55],[-14,-28],[-28,-26],[-46,-65],[-19,-13],[-99,-12],[-31,-14],[-16,-25],[-7,-51],[-40,-45],[14,-146],[21,-28],[41,-21],[95,-74],[107,-64],[19,-19],[38,-64],[22,-140],[16,-46],[52,-30],[111,-95],[32,-33],[91,-123],[-23,-209],[6,-101],[22,-61],[39,-85],[9,-66],[37,-100],[23,-15],[113,12],[28,-12],[12,-42],[26,-22],[116,-62],[84,-62],[63,-20],[141,17],[60,-13],[85,-43],[39,8],[71,49],[119,64],[64,26],[106,13],[22,18],[6,58],[26,13],[46,-37],[59,3],[3,22],[-18,64],[6,23],[103,80],[34,15],[82,21],[120,41],[49,12],[47,-3],[86,-42],[120,20],[88,7],[83,24],[20,0],[-7,-35],[15,-21],[16,-70],[33,-33],[109,-2],[56,-13],[38,-35],[44,-76],[53,-60],[59,-22],[45,-31],[34,-65],[71,-85],[49,-33],[0,-21],[-39,-95],[-54,-91],[-72,-76],[-28,-42],[-35,-80],[-17,-84],[-31,-30],[-40,-20],[-44,-41],[-62,-95],[-50,-67],[-100,-59],[-44,-46],[-57,-24],[-2,-42],[96,-25],[46,-31],[81,-27],[25,-17],[29,-37],[37,-23],[19,-85],[79,-105],[17,-102],[26,-42],[20,-74],[45,-60],[-11,-111],[-12,-36],[-6,-66],[11,-162],[38,-32],[57,-21],[6,-40],[-33,-183],[16,-43],[-36,-71],[6,-73],[15,-54],[53,-73],[27,-28],[12,-65],[55,-51],[18,-79],[-19,-47],[-112,-45],[-4,-45],[-34,-62],[-15,-50],[19,-61],[31,-48],[36,-78],[-1,-19],[-42,-77],[10,-121],[33,-127],[-1,-33],[-20,-37],[-35,-44],[-28,-90],[-21,-41],[0,-42],[19,-60],[33,-28],[18,-42],[-7,-46],[-19,-24],[-45,-32],[-38,-57],[-64,-61],[-127,-153],[-11,-22],[-3,-57],[-26,-65],[6,-37],[-19,-50],[5,-49],[-38,-54],[-9,-83],[-39,-165],[-41,-75],[-28,-33],[-7,-42],[2,-83],[14,-38],[50,-73],[-1,-51],[29,-130],[-8,-35],[-49,-89],[5,-61],[-18,-51],[3,-35],[18,-43],[33,-46],[21,-69],[24,-22],[101,-49],[39,-45],[100,-70],[43,-41],[53,-30],[27,0],[41,20],[25,29],[29,18],[77,1],[64,44],[41,132],[-33,71],[-8,60],[43,40],[11,22],[29,6],[53,27],[52,-3],[96,48],[37,39],[14,4],[100,-24],[52,-17],[64,6],[41,-25],[44,-13],[41,0],[58,19],[107,-6],[85,0],[65,-66],[54,-76],[55,-167],[18,-64],[-5,-103],[25,-66],[97,-76],[11,-37],[-27,-46],[-58,-25],[-35,-27],[-25,-49],[-1,-33],[26,-68],[42,-64],[16,-61],[25,-67],[178,24],[57,-38],[27,-8],[38,4],[27,-12],[47,-64],[13,-5]],[[45539,62941],[16,-36],[-1,-82],[-21,-53],[-13,-70],[60,-92],[1,-21],[-43,-105],[3,-94],[13,-74],[68,-25],[22,-17],[-3,-50],[-31,-69],[-1,-34],[43,-81],[33,-161],[-6,-67],[-15,-43],[-52,-69],[-44,-86],[-9,-73],[11,-34],[-9,-106],[-24,-25],[-62,-31],[-59,-59],[-69,-18],[-23,-25],[-9,-56],[-23,-66],[-4,-75],[8,-42],[3,-86],[17,-45],[28,-34],[25,-123],[-9,-76],[-31,-52],[-10,-33],[-1,-56],[-21,-98],[-32,-33],[-5,-63],[4,-75],[34,-67],[-12,-51],[-36,-43],[-66,-38],[-53,-119],[-40,-40],[-9,-43],[19,-102],[-33,-33],[-81,-58],[-108,-48],[-38,-83],[-28,-140],[12,-43],[39,-65],[12,-36],[-44,-78],[-12,-62],[43,-60],[-10,-142],[2,-20],[-21,-64],[-60,-151],[-86,-53],[-21,-76],[6,-97],[62,-90],[34,-93],[17,-20],[50,-36],[24,-77],[70,-118],[24,-62],[-35,-79],[-26,-13],[-8,-26],[-35,-56],[-63,-83],[-25,-21],[-80,-47],[-35,-12],[-30,-33],[-2,-25],[-61,-67],[-28,-20],[-18,-115],[30,-69],[66,-40],[107,-16],[51,-33],[46,-19],[73,-12],[61,1],[26,-28],[53,-17],[-1,-73],[20,-37],[75,-27],[173,-42],[72,-4],[39,-54],[-47,-62],[-20,-36],[-32,-90],[-20,-34],[28,-49],[4,-52],[16,-68],[63,-53],[33,-42],[86,-7],[9,-42],[-2,-76],[-19,-62],[31,-38],[12,-51],[49,-12],[106,-7],[24,-10],[38,-73],[16,-46],[1,-38],[24,-28],[34,-16],[61,-88],[2,-36],[-19,-91],[28,-40],[16,-41],[2,-35],[-19,-20],[-69,-97],[8,-19],[77,-65],[54,-57],[18,-65],[19,-31],[45,-31],[15,-62],[23,-39],[32,-14],[129,-165],[8,-22],[-6,-90],[7,-10],[70,-40],[19,-43],[-7,-11],[21,-76],[42,-61],[55,-49],[14,-37],[35,-45],[23,-18],[8,-28],[-25,-70],[-20,-29],[-41,-146],[-37,-78],[-12,-47],[-58,-37],[-10,-30],[32,-28],[23,-68],[29,-58],[-5,-70],[10,-29],[4,-62],[-16,-40],[2,-27],[45,-107],[34,-36],[54,-25],[31,-57],[48,-11],[37,-32],[4,-62],[-14,-82],[20,-38],[33,-36],[12,-43],[47,-29],[46,-56],[32,-54],[25,-86],[-8,-30],[-90,-122],[-8,-20],[22,-66],[9,-120],[-59,-67],[-21,-72],[-19,-37],[-47,-41],[-43,-47],[-8,-61],[3,-43],[24,-139],[-9,-49],[-105,-165],[-58,-48],[-43,-48],[-29,-73],[-57,-19],[-151,-27],[-128,0],[-122,11],[-253,83],[-49,23],[-84,26],[-176,31],[-135,8],[-78,16],[-130,67],[-120,78],[-41,48],[-17,50],[-77,-32],[-46,-31],[-96,-38],[-38,-7],[-49,-26],[2,-111],[-5,-53],[-62,-141],[-9,-45],[25,-80],[-10,-102],[1,-26],[37,-47],[64,-26],[19,-83],[6,-51],[17,-70],[-4,-70],[6,-41],[104,-108],[11,-22],[-9,-103],[-11,-24],[4,-103],[-22,-46],[-8,-44],[8,-125],[65,-98],[46,-170],[16,-98],[19,-70],[31,-62],[1,-58],[-26,-47],[-26,-23],[-25,-44],[-22,-119],[-21,-48],[-44,-80],[-45,-72],[-30,-73],[-9,-56],[-31,-51],[-12,-70],[-11,-103],[30,-82],[11,-60],[-1,-47],[-23,-18],[-61,0],[-31,-15],[-41,-42],[-42,-58],[-42,-34],[-108,-40],[-27,-17],[-24,-43],[-12,-58],[8,-48],[-14,-53],[-29,-30],[-16,-66],[6,-66],[-12,-29],[-34,-40],[-42,-29],[-49,-18],[-5,-11],[25,-67],[-4,-25],[-29,-34],[-17,-97],[-31,-88],[11,-59],[-33,-64],[1,-49],[29,-43],[-1,-60],[13,-58],[-35,-62],[-1,-37],[21,-34],[4,-31],[-16,-77],[-41,-57],[-9,-32],[2,-53],[-32,-50],[-56,-2],[-99,-62],[-70,-30],[-26,16],[-36,44],[-60,-5],[-56,8],[-50,-5],[-44,22],[-56,-30],[-39,-70],[-30,-85],[-43,-26],[-53,2],[-60,-42],[-41,-23],[-73,-10],[-48,-30],[-42,-3],[-77,6],[-10,9],[3,46],[-12,24],[-44,48],[-13,27],[0,99],[8,38],[-5,35],[-35,35],[-55,21],[-35,49],[-76,64],[-56,26],[-16,61],[-70,224],[-238,-55],[-55,-10],[-241,-62],[-61,-33],[-24,18],[-43,162],[-72,187],[-88,-21],[-144,-25],[-304,-62],[-353,-83],[-415,-113],[-86,-13],[-86,-5],[-2120,157],[-582,-247],[-1349,-151],[-1249,-785]],[[30102,47736],[-271,131],[-1214,989],[-1458,1187],[-984,801],[-284,1455],[1065,1200],[629,708],[123,460],[-165,1389],[-794,377],[-97,21],[-119,33],[-46,20],[-26,36],[-31,22],[-61,11],[-90,2],[-107,15],[-74,-6],[-38,29],[-59,15],[-78,-4],[-65,5],[-20,16],[-32,50],[-26,19],[-2,51],[-15,33],[-79,69],[-36,65],[3,30],[44,23],[25,24],[5,60],[-4,72],[5,24],[88,87],[42,21],[64,19],[28,15],[1,56],[-15,42],[-29,117],[-4,44],[-14,50],[7,15],[84,40],[34,41],[68,38],[8,21],[-25,72],[-64,61],[1,35],[17,55],[-6,70],[34,33],[67,27],[68,60],[64,7],[27,14],[42,67],[-1,87],[-36,60],[-14,48],[6,68],[17,57],[24,50],[78,41],[-19,132],[4,46],[21,47],[7,159],[-30,49],[-5,117],[-18,53],[-22,36],[-8,43],[15,84],[1,34],[-12,42],[-32,43],[-4,43],[19,37],[-10,70],[0,38],[-20,35],[-54,53],[-26,41],[2,14],[46,48],[6,41],[27,80],[4,38],[-35,92],[-9,40],[4,46],[18,23],[86,46],[0,68],[9,31],[-3,48],[11,38],[22,31],[9,34],[-6,47],[22,45],[7,35],[-5,60],[23,31],[22,82],[43,47],[19,51],[21,-4],[27,-38],[34,0],[29,16],[44,62],[28,80],[1,41],[-28,63],[18,39],[0,34],[-73,81],[-10,56],[0,83],[-17,83],[2,69],[18,18],[58,32],[-12,130],[16,74],[-18,43],[5,57],[38,80],[21,30],[28,166],[-2,27]],[[19757,37206],[827,677],[1157,570],[1304,641],[1005,495],[605,116],[374,-171]],[[25149,38942],[258,-1580],[158,-968],[703,-1008],[-41,-132],[178,-586],[46,-199],[-68,-86],[-39,-27],[-163,-39],[-27,-15],[6,-38],[112,19],[19,-87],[10,-16],[324,59],[19,-76],[65,-284],[12,-63],[45,-182],[335,62],[88,13],[35,-144],[5,-37],[48,-214],[392,70],[117,23],[349,63],[96,-388],[400,70],[15,-81],[91,-398],[52,-204],[263,47],[45,-174],[-49,-8],[-132,-33],[-45,-18],[-183,-91],[50,-68],[84,-101],[74,-102],[146,-188],[51,-78],[70,-65],[19,-29],[15,-50],[38,-30],[22,-49],[63,-35],[63,-86],[52,-56],[2,-28],[-16,-25],[-10,-45],[-6,-140],[19,-72],[1,-55],[-40,-39],[107,-80],[59,-4],[82,-32],[118,-24],[88,-50],[109,-35],[71,12],[44,-4],[85,-28],[61,9],[74,-17],[54,5],[131,-59],[72,-47],[90,-99],[103,-93],[49,-10],[80,-3],[69,-20],[20,-32],[4,-116],[15,-19],[62,-45],[126,-75],[82,-28],[75,-1],[45,-33],[78,-14],[77,16],[33,-32],[98,-34],[38,-43],[24,-61],[74,-64],[76,-38],[54,-40],[10,-25],[-28,-80],[4,-63],[17,-47],[57,-17],[64,-71],[-40,-30],[5,-83],[-27,-26],[-44,-112],[20,-53],[39,-1],[30,-12],[40,-60],[14,-54],[23,-14],[19,-32],[44,-19],[75,-113],[98,-53],[107,-38],[27,-16],[19,-27],[84,-19],[73,-5],[64,13],[26,-34],[17,-52],[35,-60],[13,-126],[-63,-75],[-87,-20],[-57,19],[-124,-47],[-87,-44],[-86,-27],[-30,-18],[-47,-78],[-91,-92],[-71,-98],[-29,-12],[-100,-55],[-45,-12],[-19,-18],[-87,-48],[-12,-25],[-5,-78],[-36,-71],[-13,-62],[-31,-74],[2,-27],[18,-54],[13,-69],[47,-65],[11,-91],[-25,-29],[-28,-7],[-58,-33],[-2,-25],[-113,-53],[-46,79],[-69,-14],[-21,15],[-68,-44],[-46,-87],[-3,-54],[13,-49],[2,-60],[14,-50],[2,-36],[-33,-42],[-39,-16],[-51,27],[-200,124],[-68,8],[-59,42],[-67,4],[-90,27],[-47,57],[-14,31],[-44,-104],[-43,-5],[-34,8],[-93,39],[17,27],[31,-10],[11,18],[-42,20],[-91,-23],[-72,31],[-30,52],[-53,64],[4,26],[-131,68],[-58,27],[-56,40],[-62,-97],[1,-31],[17,-33],[-115,-60],[-31,47],[-25,-9],[-21,33],[-91,-43],[-56,-17],[-25,39],[-22,-11],[-25,26],[-34,-13],[-9,8],[-66,-30],[48,-187],[53,-180],[-7,-11],[-74,-50],[-82,29],[-86,-21],[-28,6],[-58,33],[-47,2],[-49,-13],[-62,-9],[-69,26],[-23,40],[-29,3],[-69,-12],[-27,-25],[-17,-33],[-86,4],[-68,-3],[-115,-84],[-56,-67],[-40,-30],[-69,-17],[-28,8],[-16,-22],[7,-27],[-12,-65],[16,-42],[18,-81],[56,-41],[49,-93],[12,-46],[-7,-17],[-42,4],[-51,-15],[-20,-53],[-9,-49],[-17,-43],[43,-35],[37,-47],[110,-47],[114,-90],[73,-52],[41,-11],[103,-76],[39,-56],[71,-36],[7,-79],[46,-55],[63,-40],[33,-37],[29,-18],[99,-30],[88,-9],[91,-30],[15,-28],[33,-27],[22,-50],[39,-41],[-19,-56],[-6,-39],[6,-37],[-31,-60],[37,-63],[-9,-51],[11,-41],[29,-42],[61,-52],[60,-29],[47,-12],[35,-49],[106,-70],[26,-20],[50,-72],[-1,-34],[-13,-8]],[[29885,24135],[-81,-5],[-33,-9],[-53,-28],[-88,-16],[-95,-63],[-47,-39],[-90,-38],[-64,-15],[-25,3],[-105,32],[-84,43],[-65,64],[-85,103],[-15,24],[-34,113],[5,104],[37,86],[21,30],[50,41],[18,54],[-2,27],[-29,111],[-43,50],[-67,14],[-156,-23],[-49,11],[-68,27],[-51,41],[-11,37],[1,45],[-25,65],[-29,29],[-55,33],[-60,48],[-55,53],[-31,39],[-116,78],[-130,110],[-41,16],[-73,5],[-50,-3],[-58,-13],[-70,-38],[-31,-31],[-77,-92],[-43,-84],[-48,-70],[-79,-40],[-46,-5],[-28,16],[-88,113],[-63,63],[-178,160],[-66,48],[-66,16],[-65,-15],[-47,-27],[-34,-58],[-32,-69],[-33,-48],[-83,-64],[-64,-19],[-59,11],[-23,32],[-34,87],[-43,80],[-42,118],[-31,106],[-41,122],[-28,65],[-20,26],[-63,45],[-59,16],[-56,-5],[-158,-38],[-120,-20],[-111,14],[-123,37],[-246,16],[-54,-2],[-13,-73],[-64,-98],[-97,-5],[-40,-9],[-38,-49],[-9,-54],[-26,-43],[-23,-21],[-33,30],[-92,-88],[-39,32],[-43,-35],[-66,54],[-16,-16],[-43,40],[-16,-11],[-54,3],[-10,-93]],[[24580,25449],[-34,21],[-39,11],[-165,138],[-147,126],[15,22],[-66,58],[-15,53],[-27,37],[-58,-11],[-39,11],[-33,33],[-48,70],[4,57],[-20,21],[7,65],[21,69],[-86,151],[-38,94],[-45,56],[-37,71],[-42,54],[-66,-46],[-42,-37],[-37,-21],[-63,-12],[-80,3],[-206,45],[-57,-1],[-176,13],[-42,12],[-91,58],[-153,120],[-248,128],[-82,57],[-53,25],[-106,27],[-107,-6],[-152,-46],[-70,-16],[-27,-13],[-73,-3],[-92,38],[-68,47],[-142,119],[-90,54],[-82,38],[-114,36],[-48,28],[-39,37],[-29,51],[-16,47],[-99,197],[-32,88],[-18,69],[-18,124],[7,72],[36,79],[90,135],[1,54],[-39,56],[-46,23],[-187,57],[-23,15],[-6,48],[36,64],[35,38],[94,86],[5,11],[-61,38],[-21,-26],[-6,18],[-35,15],[-27,-6],[7,20],[-16,25],[-114,-49],[-110,76],[61,66],[4,65],[-19,67],[-52,109],[-50,82],[-66,51],[-62,40],[-53,-55],[-159,110],[-66,-70],[-129,88],[-77,-83],[-77,52],[-22,-24],[-20,12],[-147,46],[-450,255],[-339,1157],[-77,1018],[-124,1648],[-409,340]],[[12477,25120],[1380,-614],[305,-278],[-32,-288],[91,-108],[50,-104],[88,-219],[22,-66],[-15,-44],[8,-109],[41,-134],[9,-51],[4,-74],[23,-35],[95,-95],[35,-25],[72,-15],[45,15],[40,-9],[153,-71],[78,-23],[63,-3],[23,13],[31,42],[43,27],[32,0],[11,-40],[29,-49],[34,-29],[66,-14],[115,-70],[2,-21],[-42,-73],[-12,-50],[10,-50],[24,-44],[17,-10],[67,-70],[86,-56],[48,19],[29,-3],[35,21],[15,-17],[-24,-54],[24,-23],[-16,-16],[20,-17],[1,-34],[-125,-192]],[[15575,21960],[-135,-178],[-91,46],[-105,-138],[-11,-20],[29,-42],[-15,-20],[23,-20],[-22,-37],[45,-37],[45,-5],[31,-27],[68,-33],[50,-32],[91,-46],[62,-42],[47,-14],[58,-37],[-130,-177],[-183,-240],[33,-39],[66,-43],[285,-171],[141,-81],[31,5],[159,-96],[183,-107],[-87,-43],[-65,-54],[98,-65],[-226,-317],[21,-13],[-30,-38],[125,-75],[-155,-201],[97,-58],[40,-33],[-4,-38],[-33,-44],[224,-120],[-119,-155],[-44,-78],[87,-68],[47,-33],[122,-58],[42,-23],[124,-85],[107,-46],[92,-24],[55,-26],[179,-117],[29,-23],[55,-63],[57,49],[18,-15],[49,49],[47,-31],[25,15],[53,-29],[41,32],[121,-54],[49,-38],[115,-40],[25,-15],[40,-85],[36,-25],[38,-53],[32,-63],[8,-81],[-15,-61],[7,-24],[48,-37],[50,-1],[44,-37],[20,-68],[28,-18],[57,9],[53,-118],[20,-26],[55,-48],[39,28],[45,-98],[3,-62],[54,-36],[48,-3],[-3,-27],[-139,-178],[-21,-84],[-34,-34],[-30,-45],[-9,-59],[21,-51],[0,-30],[-16,-101],[-1,-62],[-36,-34],[-90,-9],[-24,4],[-53,83],[-37,15],[-76,-6],[-74,147],[-21,17],[-18,-12],[-27,-48],[-9,-53],[-3,-119],[-19,-40],[-47,-48],[-4,-76],[36,-37],[35,-57],[77,-87],[8,-22],[3,-136],[-10,-18],[-102,-32],[-18,-15],[-27,-45],[-19,-64],[20,-92]],[[15299,30109],[648,-1380],[656,-419],[98,-62],[181,-110],[140,-92],[43,-6],[0,-47],[243,-2],[0,-164],[281,1],[0,-65],[50,-8],[-5,-12],[52,-13],[-12,-44],[132,-55],[75,-35],[53,18],[47,0],[34,-90],[3,-84],[-25,-108],[-9,0],[-9,-88],[-21,-1],[5,-100],[-71,-1],[1,-78],[-15,11],[-28,-8],[-38,-43],[163,-131],[97,97],[41,-14],[63,0],[135,15],[39,-4],[57,-22],[56,-57],[15,-43],[37,-182],[39,-81],[32,-45],[124,-121],[41,-47],[-10,-5],[39,-98],[10,-75],[5,-209],[14,0],[-6,-114],[-16,1],[-5,-83],[-45,-11],[-8,-173],[22,-68],[23,-51],[-100,-28],[20,-33],[-17,1],[19,-37],[-62,-44],[-15,17],[-8,-66],[69,-34],[68,-11],[22,-38],[41,-47],[47,-23],[36,-42],[49,51],[46,-62],[67,-31],[-2,-11],[56,-19],[10,-27],[124,-56],[-21,-32],[6,-11],[-61,-46],[-8,-31],[6,-26],[32,-53],[-47,-41],[68,-34],[33,-53],[24,-68],[9,-306],[-7,-77],[-31,-93],[-156,-382],[-44,-102],[-24,-14],[-33,-1],[-199,-35],[-159,-48],[-22,-16],[-242,-326],[-27,-29],[-79,48],[-37,-68],[37,-27],[8,-38],[-38,-42],[10,-14],[293,-183],[66,-44],[154,-95],[44,0],[25,-43],[125,23],[141,30],[11,-8],[148,-158],[300,-314],[68,-84],[118,-163]],[[19731,21959],[-55,-44],[-222,-155],[-74,-60],[-20,1],[-28,61],[-45,21],[-96,23],[-40,0],[-66,44],[-13,28],[-30,16],[-79,-72],[-60,-70],[-33,-32],[-28,-16],[-70,13],[-17,-13],[-143,-207],[-100,-156],[-177,-234],[-61,-86],[59,-42],[-55,-91],[-93,44],[-100,-137],[-85,47],[-47,-48],[-69,37],[-35,31],[-122,73],[-173,95],[-109,-151],[-56,13],[-67,38],[-223,147],[23,28],[-113,59],[79,112],[-130,80],[-221,130],[-131,80],[-72,-106],[-22,-24],[-399,227],[-178,99],[-95,49],[-265,149]],[[19731,21959],[149,-228],[89,-140],[178,-268],[116,-195],[170,-270],[161,-274],[73,-95],[128,-145],[85,-84],[54,-40],[157,-97],[317,-178],[116,-55]],[[21524,19890],[-46,-58],[-60,-19],[-40,-78],[-16,-51],[-10,-71],[-3,-134],[36,-32],[34,-53],[40,-11],[17,-16],[3,-40],[72,-39],[33,-51],[-14,-28],[-2,-48],[-36,-65],[-54,-19],[-50,-3],[-11,-14],[10,-51],[-14,-27],[-28,-13],[-5,-41],[-21,-58],[1,-49],[11,-35],[-8,-47],[-42,-50],[1,-20],[30,-116],[28,-56],[110,-76],[50,-42],[38,-73],[-86,-80],[-26,-78],[-66,-49],[-1,-12],[46,-41],[15,-56],[4,-45],[52,-25],[12,-14],[-4,-46],[33,-61],[-1,-44],[-37,-47],[-22,-85],[5,-43],[-10,-51],[23,-52],[121,-85],[29,3],[43,22],[25,0],[58,-22],[30,3],[86,-13],[56,10],[65,-8],[40,-33],[38,-46],[-5,-31],[10,-33],[-34,-13],[-5,-42],[-42,-66],[-17,-56],[-55,-44],[-12,-31],[33,-40],[9,-44],[-31,-73],[-22,-27],[-5,-28],[-48,-75],[-56,-46],[-10,-35],[18,-85],[-32,-23],[-4,-30],[24,-70],[25,-21],[65,21],[46,-8],[28,-84],[45,-85],[21,-69],[55,-73],[44,-13],[95,-39],[64,-31],[23,-30],[51,-89],[40,-96],[13,-68],[44,-19],[97,-3],[59,-42],[-4,-69],[17,-47],[-25,-46],[44,-48],[45,-25],[81,-105],[51,-50],[27,-77],[27,-13],[79,-87],[19,-28],[42,-84],[32,-31],[57,-20],[23,-48],[79,-17],[33,-35],[2,-45],[-23,-75],[29,-61]],[[23272,14656],[-20,-14],[-215,-74],[-26,-38],[15,-49],[-41,-31],[-43,-1],[-60,-40],[-88,-68],[-46,3],[-80,20],[-48,-8],[-96,-7],[-29,-8],[-26,-27],[-31,-15],[-37,-49],[-47,-29],[-52,-55],[13,-132],[-47,-60],[-4,-28],[-52,-69],[-5,-34],[-34,-43],[-20,-56],[0,-36],[25,-36],[4,-39],[-31,-23],[-61,-69],[-51,-17],[-29,-47],[4,-57],[32,-28],[25,-74],[26,-156],[-71,-9],[-31,-12],[-50,-61],[-42,-3],[-37,-15],[-171,-2]],[[51429,17650],[-23,-8],[-40,-44],[-42,1],[-41,-25],[-19,-30],[-36,-1],[-17,-18],[-55,-4],[-60,-34],[-44,-5],[-113,-92],[-34,7],[-26,-24],[-11,-38],[-40,-40],[28,-27],[23,-37],[26,-21],[13,-62],[23,-43],[20,7],[43,-13],[23,-41],[22,-19],[3,-23],[-23,-54],[-27,-45],[-17,-47],[32,-162],[15,-28],[-10,-34],[-36,-62],[6,-46],[-22,-47],[8,-39],[-17,-70],[6,-36],[-13,-38],[17,-50],[-15,-37],[11,-38],[-13,-18],[-35,-17],[9,-13],[39,-7],[15,-33],[32,-35],[-19,-40],[-61,-38],[-36,-37],[-6,-38],[-60,-89],[-90,-59],[-93,-46],[-49,-65],[-65,-18],[-40,-44],[-25,-11],[-15,-44],[-26,-38],[-52,-25],[-19,-20],[-6,-62],[3,-56],[-26,-36],[-68,-35],[-41,-37],[-76,-11],[-42,-39],[-37,-78],[-46,-17],[-10,-35],[6,-52],[29,-79],[-7,-64],[-45,-38],[-50,-14],[-12,-69],[-19,-21],[-103,-72],[-82,-42],[-22,-22],[7,-41],[37,-73],[-10,-58],[-21,-26],[-30,-11],[-24,-50],[-66,-55],[-26,-46],[-10,-46],[-64,-77],[-4,-47],[-18,-69],[3,-79],[10,-53],[-23,-64],[-47,-55],[-21,-42],[5,-58],[-37,-39],[-52,-9],[-76,-22],[-89,10],[-28,19],[-99,24],[-17,50],[-51,19],[-73,-13],[-69,62],[-45,-9],[-67,-37],[-39,12],[-46,-33],[-20,-35],[-23,-17],[-14,-58],[-21,-28],[-101,-54],[-45,-41],[-31,-65],[-44,-35],[-63,-24],[-44,-44],[-32,-64],[-60,-66],[-41,-16],[-78,-21],[-113,-95],[-48,-48],[-30,-19],[-63,-23],[-66,-76],[-41,-18],[44,-66],[62,-72],[54,-37],[49,-25],[-7,-93],[-28,-25],[7,-47],[-6,-24],[-83,-127],[-70,-60],[-10,-38],[-73,-33],[-12,-69],[0,-104],[10,-27],[-4,-57],[-23,-57],[20,-51],[24,-24],[34,-12],[14,-60],[19,-53],[-15,-32],[-28,-18],[-40,0],[-16,-27],[88,-96],[75,-89],[36,-26],[75,-21],[4,-28],[-63,-31],[-41,-31],[-56,8],[-43,-25],[-148,-7],[-84,-40],[-32,-9],[-52,-41],[-46,-21],[-16,-24],[-2,-49],[-14,-30],[-34,-40],[14,-59],[53,-42],[5,-33],[-22,-66],[-34,-51],[-9,-75],[45,-24],[51,-116],[-6,-20],[-78,-57],[-21,-34],[-33,-22],[-97,-36],[-26,-24],[-23,-59],[-11,-64],[9,-72],[19,-56],[0,-59],[70,-57],[5,-36],[-18,-61],[-3,-65],[26,-119],[-15,-13],[-77,1],[-124,16],[-99,-8],[-55,-43],[-92,-28],[-17,-73],[-60,-102],[-34,-29],[-35,-45],[-46,-28],[-30,-30],[-82,-30],[-68,-32],[-34,-1],[-76,10],[-28,-4],[-57,-24],[-57,1],[-36,-19],[-79,-11],[-33,-18],[-21,-39],[-5,-43],[-39,-79],[-59,-69],[-36,-33],[-86,-41],[-76,-53],[-13,-1],[-35,40],[-72,13],[-73,34],[-31,-13],[-33,1],[-32,24],[-36,-18],[-56,13],[-59,-10],[-51,-19],[-41,-2],[-86,-68],[-95,-47],[-130,-69],[-106,-25],[-38,-20],[-87,-21],[-137,-6],[-70,-52],[-19,-35],[-111,-124],[-34,-27],[-59,-33],[-24,-38],[-26,-11],[-67,14],[-29,22],[-42,62],[-28,10],[-40,-10],[-71,-29],[-48,-6],[-56,24],[-54,12],[-53,1],[-82,-22],[-46,-28],[-71,-63],[-39,-27],[-48,-16],[-88,-47],[-97,-32],[-67,-6],[-11,-28],[-4,-61],[37,-126],[16,-35],[1,-73],[-27,-56],[-1,-46],[11,-31],[-47,-80],[-116,-45],[-83,-5],[-21,-27],[4,-47],[-29,-24],[-104,-40],[-31,-35],[-16,-40],[-119,-93],[-55,-68],[-47,-36],[-109,-28],[-19,10],[-48,71],[-34,40],[-44,12],[-92,-29],[-45,-40],[-62,3],[-37,-23],[-3,-22],[-36,-55],[-35,-88],[-21,-28],[-35,-28],[-141,-57],[-56,-17],[-23,-40],[-57,-43],[-39,-43],[-27,-7],[-51,31],[-65,-31],[-86,-32],[-43,-28],[-41,-1],[-48,15],[-67,33],[-26,4],[-63,-9],[-95,34],[-61,-3],[-57,-14],[-108,69],[-60,-3],[-6,15],[4,67],[-6,20],[-62,64],[-25,14],[-39,3],[-51,37],[-106,7],[-58,38],[-19,-53],[-43,-60],[-28,-88],[-27,-33],[-96,-75],[-56,-64],[-62,-38],[-30,-11],[-172,-8],[-64,-44],[-46,-58],[-8,-74],[-1,-133],[-44,-65],[-25,-18],[-112,-39],[-65,-19],[-45,-33],[-97,-51],[-119,-22],[-40,-29],[-107,-40],[-131,-53],[-53,-18],[-42,-32],[-84,-51],[-144,-67],[-39,-68],[-225,-44],[-45,-3],[-94,13],[-35,10],[-27,40],[-47,23],[-94,5],[-58,31],[-56,3],[-68,-45],[-41,-6],[-49,22],[-51,62],[-25,5],[-65,-6],[-76,-19],[-63,10],[-50,26],[-69,-20],[-58,-3],[-19,18],[-16,71],[-26,21],[-41,7],[-40,44],[-28,4],[-106,-24],[-50,-20],[-34,-3],[-85,45],[-47,5],[-102,-15],[-43,18],[-56,-15],[-51,-32],[-17,-1],[-94,26],[-66,29],[-26,19],[-58,63],[-55,38],[-31,13],[-155,14],[-120,-1],[-97,107],[-3,45],[-25,39],[-91,-26],[-42,-16],[-46,21],[-37,8],[-107,2],[-58,11],[-54,25],[-72,9],[-25,14],[-50,52],[-60,21],[-42,45],[-53,45],[-57,12],[-63,27],[-71,0],[-103,11],[-72,-9],[-76,-23],[-41,6],[-53,45],[-30,47],[-93,-3],[-24,8],[-38,40],[-22,-9],[-57,4],[-36,-13],[-24,4],[-58,72],[-27,23],[-16,55],[-60,28],[-29,33],[-81,39],[-71,-12],[-132,-12],[-81,25],[-70,41],[-28,50],[1,22],[48,86],[10,33],[-28,24],[-93,13],[-18,132],[-31,21],[-69,14],[-28,33],[-59,-22],[-23,2],[-70,44],[-65,-34],[-72,10],[-92,-19],[-26,4],[-30,26],[-48,21],[-31,64],[-64,21],[-45,-8],[-29,21],[1,22],[31,40],[-3,42],[-37,36],[-22,43],[-6,41],[29,37],[70,44],[51,72],[48,118],[-4,16],[-45,36],[-74,11],[-38,45],[-26,4],[-59,-25],[-31,-3],[-66,22],[-70,-7],[-53,16],[-58,10],[-116,-7],[-48,13],[-105,-52],[-55,-4],[-79,17],[-26,34],[-96,24],[-37,27],[-96,-1],[-31,-25],[-23,-33],[-36,-7],[-82,2],[-60,-12],[-64,18],[-84,-36],[-45,-4],[-31,-13],[-24,-34],[-8,-38],[-1,-80],[-165,0],[-143,-21],[-150,5],[-80,-74],[-55,-42],[-53,-23],[-76,-6],[-61,-23],[-68,-49],[-48,-13],[-44,15],[-6,57],[-38,30],[-54,29],[-85,21],[-34,28],[-11,82],[-29,37],[-43,22],[-54,14],[-52,21],[-80,58],[-70,22],[-83,7],[-151,98],[-35,10],[-30,-15],[-58,-81],[-42,-89],[8,-78],[-29,-36],[-85,-44],[-178,-100],[-37,4],[-97,80],[-48,17],[-49,35],[-47,23],[-33,35],[-25,56],[3,34],[-58,59],[-51,33],[-27,52],[-22,14],[-43,8],[-65,29],[-35,-2],[-67,-48],[-66,-29],[-19,55],[-57,61],[-10,41],[-29,64],[23,50],[-8,30],[-58,22],[-37,38],[-110,29],[-41,-6],[-50,-27],[-30,4],[-38,29],[-31,36],[-29,19],[4,35],[-48,94],[7,21],[57,71],[19,43],[-12,34],[-50,59],[-10,50],[44,23],[7,32],[-59,71],[-74,18],[-21,25],[20,85],[-97,76],[-59,12],[-61,-17],[-18,-49],[-22,-23],[-130,-23],[-62,-21],[-50,-28],[-70,-2],[-27,-40],[-43,-19],[18,-66],[-11,-27],[-96,-48],[-37,-43],[-26,-57],[-46,-36],[-31,-5],[-52,8],[-30,-44],[-7,-31],[-28,-37],[7,-35],[-16,-77],[-55,-30],[-6,-23],[11,-36],[-13,-31],[-45,-47],[-54,-43],[-4,-41],[-26,-83],[-27,-24],[-51,-23],[-92,-11],[-45,-22],[-32,-45],[-34,-21],[-132,-11],[-19,6],[-13,27],[-27,14],[-58,4],[-71,20],[-40,40],[-58,-6],[-28,36],[-32,78],[-24,25],[-70,5],[-25,-69],[-41,-40],[-32,-17],[17,-38],[-11,-78],[-32,-40],[-38,-22],[-3,-22],[47,-84],[42,9],[33,-4],[65,-87],[14,-55],[50,-70],[35,-34],[31,-12],[14,-23],[-43,-59],[0,-77],[-12,-19],[-38,-5],[-45,-23],[-52,32],[-131,-121],[-26,-42],[36,-130],[50,-79],[56,4],[100,-22],[49,-17],[74,4],[21,-14],[11,-28],[114,-82],[12,-20],[39,-14],[18,-26],[35,-20],[76,-16],[73,-4],[66,27],[12,-2],[45,-42],[12,-43],[90,-43],[38,9],[27,-54],[20,-80],[13,-12],[48,-6],[35,21],[51,-5],[45,-24],[47,-5],[95,-44],[43,28],[76,-11],[52,27],[44,-12],[35,-1],[51,-33],[17,4],[47,63],[38,-3],[41,-34],[11,-33],[16,-5],[25,26],[50,16],[70,-12],[75,-28],[97,-25],[52,27],[34,2],[4,82],[21,26],[32,2],[21,18],[-8,50],[42,19],[87,-31],[3,-32],[40,-22],[23,11],[19,-18],[43,-20],[50,9],[22,33],[35,27],[-1,32],[79,-6],[16,55],[82,27],[28,0],[70,-25],[34,7],[47,-20],[8,-44],[17,-14],[48,-5],[15,-13],[4,-46],[20,-71],[-35,-45],[-41,-72],[-15,-46],[-73,-45],[-27,-37],[-37,-18],[-13,-49],[127,-117],[32,-47],[4,-33],[17,-35],[41,-43],[61,-88],[-4,-22],[-61,-27],[-24,-19],[-135,-55],[-108,-26],[-86,-39],[-23,-31],[-32,-67],[-41,-25],[-22,-30],[-58,-2],[-53,-44],[-55,-131],[-23,-25],[-49,-5],[-29,37],[-40,25],[-48,-7],[-56,-25],[-69,22],[-142,-51],[-60,-12],[-38,-51],[-42,-3],[-22,-47],[-42,-64],[-52,-52],[-71,-6],[-25,-16],[-12,-29],[23,-21],[50,-8],[18,-24],[-1,-34],[18,-41],[4,-44],[-45,-92],[4,-47],[-13,-90],[-1,-65],[-17,-44],[-3,-80],[-45,-90],[-22,-55],[-20,-28],[-81,-26],[-12,-25],[-8,-123],[-46,-47],[-49,7],[-47,-25],[-55,1],[-22,10],[-68,-4],[-65,-54],[-31,-58],[-30,8],[-64,-6],[-41,19],[-108,21],[-117,44],[-32,4],[-53,-32],[-24,-41],[-32,-31],[-22,-45],[-30,-23],[-26,-79],[-51,-27],[-43,7],[-24,-33],[-44,-14],[-24,8],[-49,67],[-19,11],[-45,2],[-112,47],[-60,6],[-15,-26],[-35,-20],[14,-32],[2,-49],[74,-67],[22,-42],[40,-52],[101,-21],[52,-53],[12,-44],[-30,-60],[-4,-29],[12,-27],[-1,-47],[-12,-21],[-60,-23],[-66,-11],[-37,-20],[2,-34],[34,-77],[62,-54],[6,-47],[18,-48],[37,-29],[14,-29],[52,-10],[52,-50],[5,-44],[-25,-42],[6,-50],[14,-18],[47,-18],[38,-43],[19,-36],[65,-93],[1,-29],[-53,-57],[6,-37],[53,17],[39,-14],[46,-58],[59,-58],[-13,-32],[-73,-11],[-53,-65],[-44,-63],[-33,-20],[-50,-9],[-19,-13],[-58,-63],[-13,-65],[4,-77],[29,10],[12,-13],[-7,-53],[-40,-107],[-37,-26],[-59,-1],[-66,-53],[-35,-20],[-57,-16],[-75,-6],[-32,13],[-24,-4],[-59,-64],[-35,-25],[-76,-11],[-16,-9],[-27,-58],[-91,-98],[-39,-20],[-31,3],[-58,45],[-42,-10],[-27,-35],[-30,-8],[-54,18],[-32,24],[-82,27],[-51,-27],[-46,-8],[-16,-32],[-40,-34],[-80,-124],[-14,-13],[-43,3],[-26,-16],[20,-56],[2,-35],[-35,-11],[-66,24],[-94,-23],[-16,-43],[-42,-20],[-80,49],[-26,2],[-91,-51],[-54,-62],[-63,-41],[-46,4],[-54,-27],[-45,-6],[-16,-15],[-1,-54],[-14,-25],[-60,-69],[-36,-7],[-94,26],[-71,39],[-10,17],[-6,69],[-41,36],[-49,2],[-74,27],[-25,30],[0,78],[-16,11],[-76,-60],[-32,-47],[-65,-34],[-8,-38],[1,-68],[-20,-34],[-109,-41],[-121,-65],[-22,-6],[-93,12],[-63,16],[-54,5],[-27,14],[-16,54],[1,51],[-9,20],[-61,34],[-57,-7],[-52,-73],[-6,-24],[-59,-81],[-21,-14],[-53,-9],[-49,23],[-23,-1],[-48,-36],[-122,-37],[-18,-25],[0,-53],[-27,-98],[-107,-27],[-19,-29],[10,-35],[32,-21],[3,-19],[-35,-48],[-50,-27],[-52,-8],[-103,-5],[-85,10],[-59,31],[-43,-12],[-62,0],[-42,-9],[-25,-25],[-40,-62],[-68,-39],[-59,-59],[-65,-12],[-21,-42],[-37,-19],[-25,-24],[-39,-7],[-28,11],[-66,-13],[-27,16],[-19,38],[-71,27],[-51,34],[-42,4],[-36,-20],[-77,2],[-25,-18],[-68,17],[-2,31],[-16,6],[-106,-6],[-35,22],[-26,30],[-111,73],[-48,59],[-55,33],[0,77],[-10,36],[10,41],[-5,63],[-22,41],[-20,6],[-50,-32],[-77,-16],[-67,-45],[-25,-28],[-36,-64],[-45,4],[-49,16],[1,37],[-17,29],[16,20],[-8,41],[-27,65],[-49,27],[3,41],[29,32],[-33,28],[38,42],[13,44],[35,64],[9,76],[30,38],[47,32],[21,58],[76,89],[8,34],[34,39],[45,96],[1,19],[31,53],[4,46],[-15,41],[5,30],[30,38],[84,46],[6,66],[59,46],[27,34],[24,16],[52,52],[23,-3],[39,-31],[86,-3],[65,34],[72,22],[30,26],[13,26],[61,35],[9,23],[68,54],[32,5],[29,-29],[44,-14],[10,25],[101,19],[53,60],[38,25],[36,82],[3,42],[-34,93],[-11,53],[-9,82],[-15,34],[-16,79],[-18,32],[-73,-7],[-44,69],[-62,3],[-14,34],[-69,51],[-97,35],[-37,39],[-74,18],[-47,61],[-52,33],[-94,46],[-57,45],[-60,123],[-19,9],[-45,-2],[-51,43],[-28,-14],[-1,-71],[-30,-59],[-2,-51],[-49,-17],[-35,-23],[-46,-13],[-62,-40],[-68,-28],[-14,1],[-45,37],[-67,9],[-52,29],[-93,-6],[-130,21],[-75,-17],[-25,9],[-30,34],[-10,75],[-22,62],[-41,35],[-9,47],[-26,40],[-2,64],[-15,62],[-29,31],[-28,13],[-34,35],[-23,60],[2,22],[24,20],[9,29],[-21,53],[26,96],[3,52],[-19,50],[-6,65],[51,42],[56,69],[7,42],[4,97],[-13,45],[-18,24],[26,29],[5,30],[29,43],[62,36],[3,30],[-40,53],[-60,51],[-80,12],[-88,37],[-85,13],[-121,-11],[-49,-43],[-65,-4],[-16,-36],[-52,-36],[-64,-10],[-14,-22],[-42,-13],[-24,-23],[-19,-40],[-20,-12],[-56,17],[-85,0],[-49,41],[-41,3],[-55,-42],[-77,-41],[-20,-35],[-88,-25],[-36,-14],[-33,-28],[-43,13],[-35,53],[-65,-7],[-68,15],[-74,-76],[-142,-108],[-30,-14],[-56,-10],[-111,4],[-46,-27],[-102,-28],[-37,-2],[-52,11],[-103,-5],[-44,8],[-57,-8],[-39,-45],[-50,-7],[-33,8],[-78,43],[-64,-26],[-52,-35],[-11,30],[33,60],[39,59],[42,79],[8,36],[-8,38],[25,95],[-29,42],[-16,56],[79,130],[6,44],[-6,30],[-48,33],[-65,4],[-17,44],[-16,13],[-40,1],[-72,-34],[-35,-10],[-40,4],[-52,55],[-8,94],[-14,40],[-55,43],[-267,83],[1,75],[-6,50],[17,33],[-1,69],[-64,21],[-31,50],[-21,59],[-50,-32],[-78,-35],[-45,11],[-35,62],[4,23],[-70,-17],[-59,-3],[-32,-39],[-133,-78],[-72,1],[-57,-17],[-46,-70],[-48,-5],[-75,10],[-47,-22],[-81,-49],[-25,-2],[-52,32],[-70,-49],[-47,-5],[-29,9],[-43,32],[32,47],[35,99],[0,27],[-24,46],[-74,172],[-54,65],[17,74],[-8,40],[-50,81],[-62,-7],[-47,31],[-1,54],[-20,41],[2,22],[-31,15],[-38,55],[0,18],[25,27],[-8,24],[-30,16],[-70,62],[-5,13],[19,44],[-22,51],[23,99],[0,50],[13,74],[2,49],[92,144],[24,55],[1,57],[23,67],[36,62],[-2,26],[-30,32],[0,58],[42,67],[-8,37],[-45,48],[-27,133],[7,21],[32,32]],[[23272,14656],[107,23],[35,-45],[44,-14],[99,-90],[105,15],[73,47],[19,64],[19,11],[82,13],[36,24],[69,76],[13,-6],[4,-39],[17,-43],[101,-22],[14,-20],[-25,-69],[-7,-47],[10,-16],[101,-34],[119,-3],[68,17],[84,14],[34,-41],[36,-29],[-17,-60],[68,-23],[51,-6],[18,-12],[44,-58],[-13,-51],[28,-58],[2,-33],[44,-6],[54,-46],[35,4],[36,-14],[28,-43],[59,-31],[2,-48],[30,-19],[32,-35],[47,20],[62,-24],[76,-20],[13,-28],[2,-65],[14,-14],[50,-6],[27,59],[22,19],[61,-24],[40,-1],[51,19],[87,-16],[57,1],[26,19],[9,73],[-13,34],[2,67],[10,17],[43,29],[65,18],[-1,-72],[17,-63],[25,-31],[69,-70],[21,-9],[52,8],[123,-45],[29,-32],[86,-38],[74,-7],[30,-18],[52,-60],[37,-15],[87,-19],[41,9],[39,-45],[38,-76],[19,-23],[58,-129],[57,-24],[45,4],[69,23],[54,-34],[84,-4],[11,-46],[33,-62],[32,-29],[63,6],[47,25],[20,29],[39,19],[128,7],[24,24],[34,106],[38,26],[23,42],[56,50],[10,85],[21,38],[26,22],[66,33],[44,29],[70,33],[46,79],[25,26],[68,-1],[61,-16],[27,-25],[54,17],[72,49],[11,47],[38,98],[-11,36],[12,67],[45,79],[31,74],[41,61],[19,47],[69,20],[48,-8],[27,8],[88,3],[116,99],[95,18],[16,38],[35,29],[-9,24],[-69,28],[-55,48],[-70,103],[-4,68],[24,32],[36,-58],[105,57],[20,84],[-17,57],[-37,72],[-12,47],[-46,128],[-26,57],[-64,77],[-67,322],[-22,138],[-44,99],[-38,68],[-80,114],[-143,160],[6,31],[84,119],[-4,113],[-20,52],[-38,62],[3,11],[83,3],[67,27],[81,18],[11,11],[-16,139],[-10,50],[-145,61],[-46,34],[-78,92],[-38,75],[-64,93],[2,30],[78,100],[51,17],[55,-11],[13,10],[17,43],[49,53],[141,51],[34,-6],[116,5],[85,40],[18,-35],[66,51],[104,96],[28,8],[33,-7],[49,-28],[29,9],[33,44],[34,60],[23,18],[72,28],[90,4],[78,37],[4,29],[25,48],[-6,35],[-38,36],[0,13],[41,124],[5,63],[-8,32],[4,56],[-34,16],[-43,56],[2,42],[-43,55],[-17,58],[-4,79],[-11,54],[24,23],[-31,54],[-30,31],[10,54],[23,27],[74,32],[29,24],[18,51],[-21,74],[-2,32],[16,16],[14,57],[50,67],[34,63],[42,24],[45,11],[37,50],[9,75],[-21,71],[7,38],[-24,27],[4,68],[22,71],[38,34]],[[29604,19795],[44,-11],[15,-16],[21,-52],[18,-6],[85,0],[98,-22],[11,-19],[4,-85],[25,-11],[41,-1],[36,-24],[44,24],[46,-11],[61,-63],[94,-127],[22,-15],[56,2],[54,30],[30,-1],[35,-56],[38,-25],[46,33],[137,74],[64,-5],[29,16],[21,45],[56,67],[41,14],[50,0],[16,15],[22,62],[4,52],[37,32],[62,22],[14,16],[0,39],[-14,78],[7,73],[20,22],[67,46],[40,61],[46,30],[13,123],[16,46]],[[31276,20267],[19,3],[47,-16],[65,-33],[2,-46],[51,-125],[19,-24],[26,-58],[-4,-48],[16,-93],[34,-52],[31,-62],[63,-50],[121,-8],[28,-20],[32,-92],[32,-15],[33,-39],[18,-36],[-11,-82],[25,-35],[42,-27],[6,-38],[51,-51],[8,-36],[-14,-68],[23,-39],[66,-5],[54,40],[4,22],[-13,29],[17,63],[56,90],[-10,66],[74,99],[9,3],[63,-79],[64,-22],[38,-74],[39,-52],[18,-37],[8,-69],[47,-65],[43,-18]],[[32616,19068],[-5,-53],[-23,-32],[0,-36],[13,-37],[76,-27],[37,-20],[70,-10],[6,-22],[-21,-49],[14,-39],[-20,-33],[-54,-27],[-26,-29],[3,-36],[21,-39],[53,-31],[25,-35],[55,-55],[8,-28],[-27,-47],[8,-40],[-6,-24],[-49,-37],[9,-82],[19,-53],[-7,-61],[-12,-29],[-98,-111],[-10,-24],[43,-45],[32,-2],[118,34],[35,-1],[36,-43],[45,0],[19,-15],[29,-59],[72,-81],[34,-29],[29,25],[26,1],[41,-20],[9,-25],[18,-91],[-22,-67],[17,-31],[77,-31],[52,-30],[71,-21],[50,9],[34,-4],[85,-56],[56,-28],[63,-42],[71,-68],[29,-59],[29,-31],[34,1],[47,26],[27,1],[76,-47],[25,-34],[21,-9],[110,-13],[0,-29],[-59,-81],[30,-43],[-77,-112],[35,-31],[27,6],[145,-3],[39,-17],[46,1],[64,24],[74,-21],[57,12],[33,-33],[32,-79],[26,-9],[25,-26],[-3,-27],[16,-25],[-17,-21],[30,-83],[122,-18],[65,9],[45,-15],[34,-55],[67,40],[65,3],[29,12],[38,39],[52,-12],[81,23],[22,-47],[4,-48],[38,-64],[3,-62],[26,-32],[76,-56],[23,-31],[3,-90],[99,-18],[34,-28],[-1,-20],[-37,-50],[-2,-17],[28,-35],[12,-40],[48,-17],[23,-18],[-1,-19],[-48,-112],[-96,-52],[-12,-28],[14,-62],[23,-54],[-2,-27],[-61,-65],[-6,-20],[89,-105],[11,-28],[-3,-52],[16,-70],[37,-58],[60,15],[45,4],[100,34],[76,5],[54,41],[28,11],[38,58],[24,15],[78,12],[0,-56],[111,8],[26,-4],[84,-78],[29,-70],[65,-95],[-9,-39],[-46,-86],[8,-20],[30,4],[43,-23],[-12,-73],[7,-41],[45,-41],[40,-51],[20,-5],[56,11],[35,-11],[55,-32],[-9,-31],[112,-56],[53,-31],[82,-73],[40,-70],[34,-34],[114,-14],[166,-77],[33,-7],[104,-1],[96,-28],[110,-71],[94,-29],[114,-8],[54,19],[154,-7],[79,12],[90,78],[83,34],[69,57],[25,41],[66,19],[19,18],[63,35],[74,21],[20,23],[45,17],[48,-1],[95,30],[57,34],[15,-1],[57,-33],[30,-2],[48,19],[16,22],[46,109],[46,69],[62,-26],[81,29],[54,-15],[28,-19],[11,-59],[30,-71],[54,-34],[33,-2],[96,55],[16,45],[20,28],[35,18],[139,51],[81,92],[36,23],[101,2],[89,-20],[36,29],[-5,35],[7,69],[116,110],[46,14],[79,14],[37,58],[11,57],[0,52],[49,17],[50,65],[29,0],[72,-24],[5,25],[-16,123],[-16,65],[18,17],[47,10],[59,41],[30,-15],[33,-1],[25,22],[8,55],[14,14],[27,-32],[38,-17],[39,-4],[104,-47],[62,-9],[24,4],[9,23],[45,42],[51,31],[80,30],[7,13],[-5,52],[86,107],[62,41],[39,9],[49,-8],[27,9],[36,47],[20,49],[110,66],[16,47],[-10,32],[17,42],[111,58],[32,35],[23,36],[19,74],[119,-10],[68,-20],[87,30],[58,4],[72,42],[57,7],[82,-21],[31,-28],[74,-27],[133,-34],[55,-4],[49,13],[55,7],[86,-29],[119,-14],[5,-48],[45,-92],[18,-16],[73,3],[44,-11],[52,-28],[78,-66],[18,-63],[37,-44],[46,-27],[67,-18],[102,-9],[71,36],[33,4],[38,27],[34,53],[71,73],[37,25],[102,56],[20,20],[40,70],[3,41],[45,11],[89,-19],[5,57],[81,-2],[45,26],[78,2],[84,-27],[35,0],[105,54],[92,90],[68,40],[27,27],[32,90],[23,113],[50,60],[68,54],[15,120],[13,41],[26,39],[46,99],[-28,58],[-2,38],[34,142],[64,51],[30,76],[13,115],[0,65],[-10,28],[0,40],[-24,62],[-13,74],[4,10],[67,38],[29,30],[12,30],[6,87],[-21,53],[-5,65],[18,41],[29,29],[9,68],[24,54],[17,80],[-191,146],[-21,24],[-16,89],[-36,41],[-2,31],[-21,44],[2,54],[-41,43],[39,121],[29,53],[28,27]],[[45273,19080],[110,25],[41,39],[46,24],[78,53],[90,15],[34,12],[45,43],[76,29],[77,81],[44,55],[20,44],[65,49],[64,31],[47,15],[69,11],[21,10],[45,41],[116,-21],[67,-31],[28,-5],[32,17],[67,-8],[51,-30],[60,-13],[83,13],[38,-2],[58,-40],[46,-4],[57,-49],[7,-28],[35,-41],[-8,-49],[-26,-35],[-16,-102],[6,-130],[51,-33],[36,-2],[84,34],[108,-1],[95,-30],[45,-8],[145,-10],[80,13],[93,-43],[86,-63],[55,9],[15,35],[60,46],[52,6],[34,51],[56,32],[65,4],[116,22],[48,46],[26,10],[47,-3],[105,14],[24,11],[31,123],[1,46],[62,86],[71,1],[61,20],[57,35],[72,26],[34,-14],[53,-82],[52,-40],[62,-31],[109,-75],[114,-54],[68,-65],[15,-33],[4,-48],[28,-16],[64,-4],[65,-13],[99,-2],[35,10],[64,-5],[100,-34],[22,-20],[73,-35],[25,-20],[31,-99],[78,-36],[45,-12],[64,-4],[44,16],[42,32],[46,-2],[80,-29],[44,-9],[26,21],[14,34],[14,5],[61,76],[17,6],[83,-10],[131,43],[64,8],[40,-13],[41,19],[88,69],[50,58],[19,15],[99,32],[60,-4]],[[51194,19211],[17,-19],[29,-75],[-4,-22],[-69,-38],[-25,-31],[-45,-74],[-26,-91],[30,-48],[9,-34],[-10,-149],[18,-43],[32,-52],[27,-61],[42,-24],[12,-70],[15,-34],[4,-86],[15,-57],[28,-52],[52,-32],[6,-34],[-23,-85],[6,-71],[82,-73],[28,-72],[0,-98],[-15,-36]],[[24580,25449],[2,-23],[-26,-93],[-38,-15],[-31,-37],[-20,-53],[7,-30],[45,-64],[7,-42],[60,-35],[2,-19],[-43,-50],[-49,-73],[-36,-18],[-19,-38],[3,-59],[-31,-80],[12,-13],[58,-23],[39,-9],[0,-68],[10,-24],[98,-53],[37,-26],[27,-66],[18,-93],[15,-130],[-32,-76],[8,-55],[-25,-54],[-55,-48],[-18,-77],[13,-37],[47,-54],[56,-45],[5,-31],[-50,-74],[-21,-55],[3,-40],[-5,-84],[-19,-49],[10,-27],[119,-79],[3,-9],[-83,-106],[-39,-59],[-23,-94],[7,-54],[23,-39],[-18,-57],[19,-44],[58,-39],[7,-13],[-26,-118],[-25,-3],[-31,14],[-37,0],[-39,-17],[-74,-64],[-88,-48],[-46,-67],[-66,-58],[-66,-35],[14,-74],[-26,-56],[-7,-33],[12,-72],[-6,-89]],[[24206,22096],[-41,38],[-37,18],[-72,16],[-67,35],[-110,30],[-45,42],[-203,57],[-113,-3],[-194,34],[-84,26],[-87,19],[-63,8],[-91,25],[-52,23],[-58,8],[-30,-23],[-30,-48],[-27,4],[-13,-30],[-6,-72],[-17,-66],[-11,-85],[1,-97],[42,-63],[35,-240],[39,-57],[-20,-40],[-13,-81],[7,-41],[20,-32],[-10,-41],[-118,-169],[-6,-15],[-56,-42],[-55,-113],[-37,-109],[26,-70],[-10,-87],[53,-47],[-23,-33],[-3,-33],[-117,-23],[-21,-26],[8,-32],[-5,-52],[11,-67],[-23,-41],[-17,-79],[25,-66],[-77,12],[-30,-7],[-154,-76],[-163,-87],[-60,-39],[-107,-101],[-30,-42],[-90,-53],[-18,-31],[-51,-112],[-93,33],[-91,37]],[[24206,22096],[30,-30],[65,-29],[53,-2],[26,-10],[86,-19],[48,-24],[66,-45],[57,-33],[19,-32],[-22,-51],[-18,-9],[-24,-74],[8,-53],[19,-29],[64,-41],[-8,-32],[-24,-30],[2,-32],[20,-16],[114,-181],[71,-72],[10,-24],[-13,-22],[27,-35],[9,-32],[93,-90],[30,-15],[38,-47],[-8,-31],[6,-38],[67,-166],[-7,-28],[-56,-58],[-5,-33],[49,-75],[22,-13],[60,12],[31,-21],[21,-51],[-11,-47],[19,-62],[14,-22],[-30,-43],[-37,-24],[4,-29],[33,-14],[35,-34],[89,-14],[63,16],[33,-6],[32,-40],[42,-19],[45,-6],[31,-14],[11,-35],[-9,-45],[19,-37],[42,-41],[21,-50],[28,-22],[7,-43],[-8,-41],[59,-24],[34,-38],[38,-10],[64,39],[39,1],[40,-20],[59,15],[73,5],[25,-26],[-26,-46],[13,-52],[53,-30],[82,-32],[42,-28],[55,-2],[21,-15],[10,-43],[99,-19],[53,15],[21,15],[81,102],[22,71],[-10,36],[14,28],[64,12],[49,18],[62,59],[101,58],[100,36],[32,52],[33,-4],[62,-29],[23,4],[108,52],[12,0],[87,-44],[60,-3],[25,12],[63,-1],[26,-9],[55,-1],[17,-25],[7,-51],[-4,-97],[28,-84],[39,-49],[21,-63],[37,-24],[17,-43],[38,-28],[24,-38],[32,-12],[139,49],[21,36],[56,45],[-6,46],[50,115],[10,43],[-17,59],[-53,75],[-48,95],[-27,144],[-36,127],[-25,43],[22,35],[-17,22],[-46,89],[-29,83],[-43,94],[-39,47],[-52,45],[223,-5],[43,15],[124,61],[70,2],[59,-23],[43,-2],[46,-23],[2,-55],[63,-23],[60,-48],[64,-6],[75,31],[68,-58],[10,-33],[53,3],[21,-13],[-3,-32],[8,-46],[44,-54],[39,-5],[46,-33],[45,-6],[44,-39],[11,-37],[30,0],[55,24],[43,-31],[59,-56],[13,-42],[-13,-46],[-32,-30],[-8,-34],[37,-71],[29,-76],[72,8],[43,-52],[22,-8],[47,12],[37,-6],[69,2],[99,-115]],[[20557,62383],[8,2],[91,-34],[38,-4],[65,20],[63,8],[47,23],[175,32],[66,4],[235,54],[40,14],[73,42],[121,13],[105,53],[20,-8],[56,-103],[57,-16],[105,1],[66,-17],[60,-4],[62,-23],[32,39],[8,23],[10,103],[53,114],[23,64],[28,25],[88,-18],[162,-18],[67,-32],[66,-44],[37,-7],[51,12],[51,23],[64,-4],[40,-50],[73,-34],[43,-48],[35,-10],[49,2],[42,32],[100,-29],[24,-27],[3,-30],[37,-80],[21,-109],[16,-38],[26,-30],[114,-1],[65,-12],[38,22],[23,-4],[47,-66],[59,-48],[46,-11],[100,-35],[47,-5],[82,26],[99,62],[63,65],[33,73],[120,69],[75,6],[139,61],[35,64],[2,63],[-24,42],[-18,98],[-22,62],[17,27],[71,49],[88,19],[31,14],[32,58],[60,214],[12,17],[36,10],[20,23],[7,31],[19,20],[75,33],[43,2],[72,-44],[130,-40],[63,-33],[63,-17],[68,1],[34,-11],[40,-47],[65,-51],[66,-23],[51,-6],[63,18],[41,4],[52,-23],[35,-42],[32,-65],[75,-67],[160,-117],[51,-15],[68,26],[34,-4],[37,-26],[27,-67],[7,-59],[58,-14],[42,-39],[88,-57],[86,-39],[29,-26],[18,-39],[69,-83],[27,14]],[[7589,41569],[-55,47],[-22,147],[-21,60],[-63,71],[-12,25],[-10,85],[1,95],[-105,-16],[-157,-60],[-26,-14],[-37,-41],[-44,-69],[-18,-12],[-89,-32],[-52,-32],[-45,-203],[-35,-34],[-26,-50],[-55,-193],[-32,-49],[-60,-26],[-40,-25],[-106,13],[-39,-45],[-83,-30],[-65,-10],[-92,-1],[-96,-9],[-79,-36],[-33,-47],[-3,-51],[5,-56],[-7,-17],[-43,-15],[-68,17],[-27,-1],[-37,-41],[-7,-49],[-32,9],[-68,-9],[-92,-35],[-70,-10],[-46,17],[-64,54],[-51,28],[-58,58],[-84,47],[-71,11],[-16,9],[-85,114],[-17,51],[-50,64],[-40,74],[-69,63],[-75,53],[-11,29],[26,56],[1,68],[-27,105],[-21,27],[-50,33],[-9,31],[-30,33],[-23,43],[-46,61],[-32,31],[-33,68],[-16,22],[-46,33],[-57,69],[-36,59],[-3,23],[28,41],[-14,66],[31,106],[-11,57],[14,19],[51,16],[5,26],[-4,83],[6,73],[-15,36],[-84,89],[-36,83],[-47,29],[-52,16],[-55,0],[-85,10],[-37,18],[-62,56],[-23,12],[-8,24],[15,27],[29,23],[6,60],[13,47],[-29,83],[-24,118],[-37,112],[-20,24],[-113,34],[-117,49],[-59,19],[-40,73],[8,18],[52,27],[27,30],[9,40],[4,116],[-19,61],[5,75],[-17,39],[-41,29],[-8,49],[-18,17],[-73,13],[10,48],[-7,50],[-39,38],[-138,16],[-91,-21],[-84,23],[-89,13],[-72,44],[-65,31],[-68,49],[-164,60],[-48,21],[-99,80],[-146,52],[-7,48],[-19,22],[-170,75],[-74,11],[-68,60],[-3,115],[-8,39],[-30,72],[6,45],[-30,102],[-35,21],[-65,17],[-90,56],[-69,69],[-64,28],[-14,20],[13,52],[-4,26],[-61,28],[-27,33],[-5,25],[-34,62],[-17,83],[-27,45],[-109,115],[0,52],[22,75],[-3,56],[-46,93],[-33,27],[-53,59],[-106,-48],[-32,-5],[-28,14],[-32,56],[-30,26],[-160,79],[-121,69],[-36,8],[-84,-4],[-32,6],[-67,37],[-71,9],[-42,-13],[-37,12],[-34,30],[-44,9],[-79,-4],[-65,12],[-108,2],[-69,19],[-33,24],[-26,56],[2,33],[19,58],[32,52],[66,76],[77,58],[2,27],[-25,50],[2,55],[31,31],[65,26],[15,23],[19,95],[-3,60],[23,32],[80,11],[24,10],[26,36],[16,53],[-4,32],[-17,38],[-55,55],[59,163],[26,141],[15,30],[135,117],[29,60],[79,66],[52,55],[2,65],[18,40],[35,38],[26,12],[70,-3],[89,23],[66,31],[2,71],[70,124],[41,92],[12,104],[35,95],[-1,16],[-61,72],[-8,32],[19,34],[139,77],[82,25],[50,31],[40,37],[63,125],[21,25],[27,14],[67,-12],[56,19],[53,27],[185,38],[65,3],[27,13],[44,43],[60,118],[24,58],[-8,52],[-39,92],[-51,95],[-8,38],[12,174],[10,15],[132,33],[115,33],[93,-3],[107,-33],[91,-49],[65,-63],[39,-63],[20,-5],[67,20],[73,-8],[93,10],[57,-2],[42,-13],[88,-44],[36,-2],[130,42],[54,40],[19,44],[7,85],[21,43],[50,71],[13,76],[28,77],[53,87],[14,48],[-6,10],[-70,45],[-66,70],[-29,76],[10,102],[53,145],[49,80],[11,34],[-14,87],[6,25],[46,49],[4,74],[18,65],[1,49],[19,69],[-14,90],[27,159],[-13,191],[15,84],[56,103],[48,51],[54,91],[34,51],[46,28],[67,-18],[46,8],[32,-7],[65,-36],[56,5],[159,-16],[124,41],[74,41],[87,36],[71,40],[58,22],[42,-3],[32,-23],[37,3],[59,20],[78,-26],[120,-67],[91,-32],[68,-37],[40,-36],[21,-5],[63,18],[37,-24],[49,-12],[185,-2],[37,12],[28,32],[49,100],[47,43],[34,12],[40,-8],[66,-40],[39,-34],[39,-21],[104,-8],[103,9],[28,-7],[50,-53],[68,-59],[28,-33],[21,-3],[70,14],[56,-33],[63,-6],[76,-36],[53,-2],[44,8],[83,-9],[51,12],[39,70],[77,-64],[98,-108],[19,-39],[-7,-116],[-22,-61],[-41,-39],[-14,-47],[28,-88],[20,-160],[-9,-20],[-41,-33],[-14,-28],[-7,-61],[7,-44],[60,-49],[74,-39],[31,-51],[16,-77],[59,-59],[44,-35],[82,-18],[29,-18],[32,-38],[12,-45],[38,-38],[43,-21],[35,-2],[73,15],[46,-3],[124,-59],[34,2],[70,15],[120,12],[37,17],[38,47],[67,33],[69,11],[81,-10],[47,19],[20,49],[13,8],[85,19],[122,8],[59,22],[74,80],[99,73],[116,37],[37,30],[44,50],[28,10],[99,3],[49,7],[70,61],[69,16],[47,17],[57,33],[134,46],[203,13],[49,11],[28,81],[76,141],[42,95],[-5,65],[20,99],[20,53],[51,105],[-19,100],[5,61],[27,71],[10,114],[-5,63],[-16,57],[2,65],[-10,58],[3,70],[-19,64],[-22,46],[48,30],[50,56],[23,46],[24,15],[97,27],[27,65],[40,37],[63,27],[19,67],[38,36],[44,25],[55,15],[53,47],[45,6],[17,44],[16,94],[24,68],[43,76],[35,28],[35,8],[82,6],[131,40],[60,-2],[75,-39],[37,-5],[123,43],[136,27],[49,15],[75,35],[44,30],[49,68],[40,147],[15,87],[-3,33],[-37,115],[2,24],[22,50],[-5,41],[-61,96],[-78,73],[-32,65],[-1,78],[60,119],[-1,100],[6,44],[-12,47],[-28,17],[-44,6],[-82,-5],[-42,6],[-33,64],[-27,39],[0,30],[26,34],[143,63],[39,27],[48,71],[46,44],[35,54],[37,99],[7,61],[-6,105],[5,23],[61,102],[11,68],[-49,127],[-8,128],[44,89],[32,81],[17,79],[17,110],[-1,70],[38,79],[23,88],[24,47],[2,56],[-4,98],[-6,24],[-41,70],[-54,75],[-6,27],[14,19],[28,-1],[42,17],[43,35],[26,89],[1,59],[18,29],[71,26],[56,95],[72,40],[53,1],[26,32],[-18,106],[9,60],[51,72],[61,145],[39,37],[18,51],[-59,90],[1,128],[-8,29],[-47,100],[18,30],[87,48],[15,73],[15,24],[18,111],[13,31],[32,34],[23,7],[188,38],[80,113],[18,8],[52,-9],[31,11],[15,32],[19,73],[1,35],[23,43],[48,64],[11,79],[28,52],[-6,90],[3,22],[51,83],[19,59],[35,73],[-1,115],[18,54],[96,91],[67,44],[-3,65],[17,49],[16,74],[24,64],[38,77],[22,108],[39,56],[19,54],[-19,53],[61,12],[-21,56],[1,54],[10,77],[-23,40],[8,58],[35,66],[-7,34],[10,32],[43,35],[18,40],[5,66],[-17,46],[11,73],[22,60],[32,55],[71,-14],[45,39],[72,6],[26,18],[60,15],[48,-1],[57,8],[40,-18],[83,6],[35,-21],[40,-44],[9,-25],[46,-78],[71,-169],[15,-55],[41,-36],[45,-57],[37,-64],[45,-156],[51,-92],[15,-49],[4,-103],[26,-39],[2,-30],[-35,-123],[3,-41],[43,-86],[157,-46],[128,24],[50,13],[73,-13],[27,-22],[55,-74],[12,-39],[30,-32],[105,-95],[29,-59],[62,-11],[71,-59],[119,38],[52,29],[29,32],[55,20],[105,21],[89,-35],[51,-10],[21,-20],[40,-65],[27,-24],[101,-21],[98,-68],[30,-129],[13,-27],[110,-62],[9,-10],[36,-91],[41,-88],[32,-35],[16,-87],[105,-101],[89,-124],[40,-116],[-1,-78],[8,-29],[71,-39],[51,-117],[16,-11],[43,5],[79,58],[107,111],[32,44],[53,29],[94,44],[49,38],[48,77],[33,33],[84,63],[31,15],[72,-2],[35,-10],[115,-56],[66,-25],[46,-3],[82,7],[38,14],[107,70],[49,-52],[24,-43],[29,-10],[128,31],[81,-14],[37,7],[51,23],[53,-5],[70,-38],[33,-31],[45,-8],[66,29],[78,25],[37,18],[28,33],[0,85],[12,12],[103,23],[31,19],[46,64],[56,53],[26,37],[45,81],[27,35],[19,48],[-6,30],[-64,125],[13,43],[51,31],[11,49],[-3,33],[13,54],[-11,48],[11,36],[37,43],[-5,23],[-30,36],[-15,34],[1,24],[52,78],[71,131],[36,43],[67,37],[38,40],[25,65],[27,88],[-5,19],[-45,58],[1,16],[65,53],[146,9],[65,-21],[58,-25],[57,5],[24,31],[11,52],[38,77],[36,96],[66,140],[39,89],[29,33],[4,72],[19,29],[-12,46],[6,20],[46,13],[33,20],[41,38],[180,90],[68,60],[53,68],[-6,29],[-59,50],[-59,41],[26,74],[-2,49],[-72,23],[-37,23],[-5,50],[28,102],[5,71]],[[50450,33483],[58,-29],[43,-32],[94,-28],[83,-1],[48,13],[22,-3],[115,-57],[134,-42],[49,-38],[22,-38],[83,-28],[34,-22],[58,-71],[16,-6],[22,18],[69,6],[35,19],[65,19],[27,14],[39,42],[82,31],[38,8],[19,-11],[23,-53],[40,-26],[12,-28],[39,-26],[44,-3],[69,-26],[83,-57],[17,-34],[81,-19],[28,-23],[58,-77],[73,-26],[51,-63],[59,-43],[38,-49],[16,-61],[21,-19],[110,-32],[30,-37],[49,-114],[10,-42],[-2,-42],[36,-60],[113,-83],[81,-45],[24,-6],[50,5],[61,17],[33,-1],[58,-27],[28,-3],[50,33],[17,-1],[60,-47],[4,-70],[101,-56],[18,-40],[-11,-48],[-77,-22],[-23,-45],[5,-46],[25,-80],[51,-24],[61,-2],[47,17],[48,42],[55,10],[66,-5],[77,-11],[71,-17],[52,-18],[49,-32],[80,-152],[41,-59],[34,-75],[9,-88],[-83,-136],[-52,-79],[79,-80],[13,-25],[15,-86],[20,-186],[-11,-46],[19,-58],[29,-51],[-2,-13],[-51,-36],[-53,-18],[-45,-27],[-51,-21],[-44,-31],[-33,-91],[-12,-8],[-71,-14],[-123,22],[-100,0],[-48,13],[-70,-3],[-96,-26],[-33,-20],[-13,-45],[25,-61],[-3,-44],[-19,-40],[-27,-78],[-39,-48],[-18,-35],[-4,-49],[8,-39],[52,-118],[9,-44],[-48,-131],[-36,-135],[-12,-10],[-120,-22],[-83,-36],[-45,-47],[-44,-58],[-87,-38],[-38,-97],[-2,-96],[-17,-85],[-31,-87],[-47,-67],[-43,-40],[-2,-27],[60,-30],[70,-23],[57,-45],[60,-69],[78,-10],[74,-19],[90,-53],[44,-20],[57,-13],[115,-59],[50,-56],[95,-45],[76,-71],[42,-62],[2,-24],[-26,-36],[-40,-31],[-72,-12],[-24,-20],[-25,-85],[-25,-41],[-17,-69],[-23,-57],[-24,-33],[-93,-29],[-80,-55],[-76,-61],[-81,-32],[-26,-24],[-10,-69],[13,-83],[81,-96],[34,-51],[-4,-55],[19,-49],[66,-84],[-4,-31],[-49,-55],[-25,-61],[-54,-116],[9,-85],[44,-69],[2,-28],[26,-35],[-44,-162],[12,-96],[36,-46],[-21,-48],[-37,-42],[-64,-43],[-39,-44],[-53,-118],[-35,-114],[-2,-30],[36,-100],[36,-137],[-12,-40],[-40,-31],[-15,-41],[-54,-44],[22,-29],[34,-14],[77,-68],[9,-48],[33,-56],[63,-66],[30,-55],[37,-99],[11,-50],[-11,-16],[-49,-20],[-39,-4],[-46,-23],[-56,-51],[-25,-32],[-42,-10],[-38,-23],[6,-44],[-161,-36],[-44,8],[-29,-25],[-2,-18],[58,-81],[0,-56],[-13,-75],[29,-44],[11,-40],[26,-15],[42,-70],[20,-79],[35,-39],[57,-21],[83,-73],[16,-39],[30,-30],[5,-24],[-36,-97],[-23,-41],[2,-24],[76,-167],[29,-20],[5,-22],[-5,-65],[22,-90],[-1,-43],[28,-76],[-4,-36],[-31,-54],[2,-39],[-19,-62],[-52,31],[-33,41],[-49,17],[-46,0],[-31,-30],[-29,-85],[-40,-37],[-55,-15],[-30,-21],[-56,-86],[-75,-5],[-75,-44],[-25,-47],[2,-45],[25,-34],[0,-32],[-24,-32],[-63,-14],[-40,8],[-78,-12],[-31,-32],[-23,-10],[-19,-31],[-36,-79],[-25,-30],[-22,-44],[-23,-17],[-76,25],[-65,27],[-97,-5],[-78,7],[-21,-33],[0,-54],[-14,-20],[-94,-67],[-29,-49],[-9,-127],[-29,-123],[-45,-32],[-27,-5],[-93,-33],[-63,-70],[-49,-18],[-64,-1],[2,-42],[36,-37],[0,-39],[-48,-123],[-3,-77],[8,-50],[-7,-49],[-27,-49],[20,-55],[13,-61],[-18,-24],[-71,7],[-24,-7],[-32,-57],[-4,-33],[30,-38],[51,-22],[18,-45],[0,-31],[-20,-42],[-19,-103],[-14,-54],[10,-86],[16,-56],[15,-23],[-6,-69],[10,-62],[27,-19],[31,-37],[47,-100],[-32,-46],[-2,-62],[23,-34],[47,-29],[25,-5],[91,0],[62,-19],[94,17],[69,-11],[50,6],[50,-23],[-30,-35],[-16,-36],[-27,-20],[-64,-29],[-26,-67],[-24,-29],[9,-22],[54,-24],[0,-62],[-21,-20],[-36,-9],[-25,-29],[-1,-35],[-27,-37],[-7,-27],[14,-50],[8,-65],[-10,-59],[-20,-39],[-86,-57],[-82,-20],[-76,-7],[-82,-57],[36,-45],[8,-49],[38,-31]],[[45273,19080],[-61,38],[-25,63],[-53,44],[-103,128],[-25,94],[-11,56],[9,34],[-17,43],[-3,66],[-13,18],[-62,33],[-31,56],[-3,46],[-85,15],[-56,1],[-47,13],[-26,53],[1,30],[25,66],[-9,47],[-35,26],[-13,45],[3,28],[33,60],[-9,27],[-45,35],[-29,66],[-69,40],[-52,77],[-167,23],[-75,57],[1,48],[-46,88],[-32,36],[-30,52],[-57,41],[-23,33],[-96,-18],[-52,0],[-55,14],[-70,-1],[-127,26],[-87,31],[-80,36],[-85,17],[-44,14],[-14,24],[20,116],[-23,36],[25,54],[-23,41],[-3,36],[-47,56],[-24,10],[-27,57],[-88,16],[-38,15],[-103,14],[-59,-1],[-33,10],[-36,27],[-18,46],[-29,22],[-41,88],[-1,40],[-25,28],[-32,5],[-61,-15],[-30,-62],[-81,-78],[-29,-10],[-77,43],[-56,47],[-48,49],[-13,115],[-87,64],[-52,98],[2,50],[-12,26],[-34,30],[-88,10],[-8,22],[-2,65],[-55,29],[-38,1],[-46,-18],[-28,5],[-39,44],[-15,52],[5,43],[-38,30],[9,56],[-9,15],[-64,24],[-24,20],[-50,63],[-13,29],[-42,15],[-147,-7],[-23,6],[-85,49],[-34,49],[-64,4],[-92,-84],[-32,0],[-48,29],[-91,13],[-94,2],[-104,-15],[-49,-24],[-43,4],[-70,-17],[-40,22],[-160,29],[-63,-13],[-13,-21],[-34,-18],[-79,-3],[-65,10],[-38,22],[-73,4],[-24,11],[0,52],[-12,60],[-72,122],[-41,174],[-72,18],[-21,-15],[-42,-140],[-20,20],[-50,-1],[-17,-21],[-16,-132],[-28,-39],[-23,-2],[-48,17],[-96,-40],[-74,-58],[-38,-37],[-182,25],[-39,15],[-36,34],[-15,46],[-24,32],[-33,10],[-32,42],[-39,27],[-123,29],[-23,15],[-41,59],[-12,34],[-5,46],[-28,52],[-59,77],[-14,39],[-34,19],[-30,-18],[-68,15],[-40,29],[-44,-11],[-24,10],[-20,51],[-27,29],[-42,24],[-83,21],[-38,30],[-46,24],[-9,27],[-97,48],[-91,25],[-40,1],[-54,-17],[-32,-25],[-63,-5],[-45,39],[-40,-14],[-66,5],[-32,-15],[-48,-41],[-33,9],[-34,32],[-38,56],[-54,26],[-56,9],[-28,-8],[-33,17],[-39,5],[-48,-19],[-42,19],[-26,1],[-30,-31],[-63,-3],[-54,-9],[-141,9],[-37,-23],[-22,-42],[11,-42],[-12,-68],[22,-46],[-9,-66],[-75,-18],[-66,4],[-68,24],[-105,-26],[-28,9],[-189,-7],[-95,10],[-25,-18],[-66,-12],[-42,5],[-53,-23],[-50,-5],[-29,-22],[-77,-43],[-52,-20],[-48,-61],[-31,-66],[-25,-24],[-82,-9],[-33,-30],[-193,-152],[-36,25],[-42,-29],[28,-34],[-21,-47],[53,-1],[34,-25],[28,18],[43,-1],[-14,-181],[31,-4],[-68,-84],[-31,2],[-2,-211],[29,-45],[-41,-80],[-2,-49],[34,-64],[18,-105],[18,-48],[-4,-47],[9,-32],[16,-199],[-4,-76],[-19,-12],[-54,1],[-57,23],[-11,-5],[5,-68],[-5,-56],[-31,-49],[2,-40],[-12,-45],[20,-45],[67,-16],[13,-13],[12,-49],[-42,-95],[15,-14],[70,-5],[96,28],[40,18],[55,39],[17,59],[48,-2],[41,-72],[7,-37],[44,-53],[-7,-50],[-14,-9],[-43,2],[-81,-6],[-46,-21],[-73,-49],[-35,-76],[-67,-21],[-117,1],[-81,-43],[-31,-33],[-23,-54],[-39,-23],[-73,-63],[-58,-12],[-42,-19],[-29,-23],[-42,-9],[-33,43],[-57,-31],[-17,23],[-10,-12],[14,-36],[-3,-24],[-46,-27],[-21,28],[-64,-31],[-23,27],[-35,-14],[3,-37],[-124,-71],[-53,-62],[17,-25],[-33,-27],[-90,-55],[-37,-13],[-13,-17],[-52,-11],[-105,-67],[-5,-9],[3,-80],[57,-100],[41,-46],[-48,-22],[-48,-31],[-11,12],[-39,-26],[-33,22],[-48,-35],[3,-21],[-58,-41],[-15,5],[-16,32],[-25,-5],[-34,-47],[-50,-2],[-45,19],[-38,2],[-50,24],[-74,77],[-40,71],[-13,11],[-82,-33],[-30,4],[-19,-26],[-123,1],[-75,25],[-61,50],[-46,24],[-19,-4],[-39,-35],[-18,-5],[-57,27],[-11,-4],[-20,-84],[14,-63],[-2,-21],[-28,-43],[-2,-51],[-33,-44],[-13,-64],[8,-29],[23,-31],[1,-35],[-61,-28],[-21,-47],[-29,-30],[-47,-16],[-44,-59],[-22,-81]],[[31276,20267],[-47,19],[-16,-6],[-9,-45],[-18,-30],[-13,-57],[-34,-23],[-225,-17],[-26,-9],[-22,-29],[-24,-10],[-47,-2],[-73,24],[-29,31],[-38,64],[-9,32],[-65,69],[-1,21],[28,114],[-21,86],[-22,37],[-13,85],[-20,74],[-33,57],[-27,24],[-9,28],[2,45],[-23,83],[-13,26],[-26,20],[-5,54],[-22,70],[-6,83],[-15,64],[-98,187],[-37,18],[-4,61],[-37,110],[0,30],[-23,77],[25,0],[7,24],[-37,84],[-5,37],[15,26],[110,29],[46,-1],[111,71],[-44,61],[38,28],[-61,76],[95,62],[-46,57],[-269,311],[-41,54],[-32,31],[-60,-11],[-32,46],[0,32],[-37,7],[-133,-30],[-12,3],[-45,55],[5,12],[156,108],[19,38],[46,120],[-10,32],[23,45],[37,31],[34,10],[61,-4],[28,45],[128,-49],[47,91],[-77,15],[-67,25],[-14,17],[-24,66],[-34,65],[-53,66],[-29,78],[72,106],[94,77],[8,32],[-25,54],[-46,27],[-75,63],[-53,53],[-62,76],[-52,39],[-1,13]],[[33473,33735],[26,-15],[158,-172],[54,-67],[43,-62],[59,-155],[35,-210],[24,-179],[24,-263],[1,-123],[-7,-140],[-28,-155],[-10,-91],[4,-32],[24,-67],[49,-105],[145,-263],[130,-225],[104,-160],[173,68],[44,-165],[-137,-54],[30,-72],[52,-231],[2,-261],[-9,-222],[-2,-134],[208,1],[107,-7],[64,64],[15,30],[40,-14],[17,28],[166,-104],[-44,-57],[93,-54],[-41,-65],[163,-99],[42,56],[-14,8],[56,79],[11,0],[7,41],[54,71],[10,22],[31,-15],[239,-143],[230,-131],[58,65],[265,-159],[56,78],[-5,6],[86,119],[14,1],[48,64],[37,-18],[49,64],[25,-10],[58,76],[-61,31],[76,103],[-45,26],[29,48],[-16,35],[58,72],[-243,146],[38,49],[-109,63],[49,72],[-8,9],[48,69],[-49,29],[56,82],[-49,31],[42,50],[13,-71],[24,-42],[34,11],[88,-46],[9,11],[23,73],[45,68],[19,-9],[39,63],[20,7],[6,-21],[-2,-72],[134,17],[10,-24],[70,-42],[42,65],[239,-131],[-62,-90],[52,-34],[-39,-50],[21,-9],[-25,-25],[41,-51],[43,-39],[84,-57],[81,-74],[38,29],[242,-116],[13,29],[67,-33],[36,64],[46,94],[-14,21],[20,47],[53,92],[-86,48],[37,64],[115,-68],[48,10],[37,-34],[22,-35],[85,-38],[12,-25],[-13,-39],[13,-11],[49,2],[58,-6],[54,55],[20,65],[19,-6],[42,119],[44,-16],[49,74],[-5,33],[12,19],[26,-4],[33,42],[46,3],[56,99],[19,23],[152,-108],[97,-56],[131,-58],[73,-19],[130,-25],[102,-11],[116,-5],[72,-15],[34,-26],[30,-45],[132,-65],[70,-27],[57,-5],[96,18],[102,2],[54,-30],[104,-46],[71,-8],[41,-14],[130,-27],[57,21],[40,31],[45,0],[64,-35],[66,-5],[122,21],[62,27],[107,0],[75,50],[91,66],[102,10],[130,43],[77,42],[50,33],[56,50],[25,13],[74,17],[64,-18],[55,-1],[47,11],[175,21],[59,21],[53,27],[57,-24],[25,-64],[35,-29],[36,-8],[1,-25],[36,-60],[46,-8],[46,-34],[53,-91],[27,-3],[16,31],[23,3],[53,-73],[103,6],[12,-5],[-2,-43],[13,-29],[46,-14],[8,-59],[60,-84],[39,-30],[30,25],[24,55],[16,17],[30,4],[40,-21],[55,10],[76,-59],[71,-40],[58,-39],[41,-20],[32,-67],[23,-22],[46,-14],[0,-27],[41,-56],[47,-44],[52,-29],[13,-30],[-26,-66],[-51,-64],[7,-63],[-25,-59],[-9,-42],[-17,-26],[-34,-27],[-22,-35],[-11,-60],[-25,-36],[-1,-40],[11,-39],[-8,-56],[60,-16],[45,12],[57,-12],[126,-13],[39,3],[51,-34],[15,-48],[69,-33],[42,8],[34,61],[37,85],[0,37],[27,10],[29,31],[34,14],[74,9],[32,35],[8,34],[28,38],[27,67],[75,38],[28,34],[34,10],[47,-5],[76,39],[56,4],[16,-8],[22,-40],[50,-10],[72,17]],[[44741,29750],[5,-54],[38,-28],[10,-28],[-7,-24],[45,-34],[8,-87],[16,-24],[34,7],[50,-3],[37,16],[28,-60],[41,-33],[48,16],[23,-4],[-11,-34],[1,-41],[-11,-29],[18,-26],[-2,-33],[23,-80],[36,-9],[107,2],[40,-6],[53,-34],[70,-31],[93,-61],[68,-81],[68,-35],[98,20],[28,-10],[101,-56],[16,-47],[66,-5],[32,8],[88,-2],[63,-44],[69,-27],[25,61],[34,32],[25,11],[26,28],[14,33],[1,43],[23,46],[137,144],[68,57],[30,10],[68,-8],[52,-26],[55,-71],[38,-12],[38,8],[57,-16],[18,-16],[103,16],[70,45],[119,36],[62,-2],[38,13],[84,98],[42,28],[38,56],[42,14],[44,49],[56,-18],[84,26],[53,2],[54,37],[44,14],[49,3],[47,12],[52,41],[36,-22],[85,2],[36,18],[66,56],[58,24],[19,24],[17,67],[80,19],[22,17],[12,60],[51,22],[51,31],[135,14],[44,18],[11,22],[65,69],[39,54],[16,49],[-1,70],[5,14],[153,151],[62,101],[18,53],[-6,116],[-12,65],[-47,114],[-38,28],[-40,13],[-78,37],[-14,17],[-35,-8],[-48,35],[-55,5],[-16,31],[-8,48],[-15,36],[-22,13],[-44,90],[1,41],[-61,30],[-34,24],[-36,9],[-60,2],[-57,77],[-98,35],[-39,39],[-23,54],[-10,47],[7,46],[-3,41],[-43,49],[-1,54],[-60,60],[-39,21],[-27,38],[-48,26],[-15,43],[-93,155],[10,85],[12,47],[-64,83],[1,62],[-17,34],[6,14],[83,42],[-8,104],[-56,77],[-33,13],[-37,54],[-4,40],[17,62],[66,70],[23,41],[5,41],[-12,50],[-38,44],[-13,37],[0,32],[16,26],[3,50],[26,15],[39,51],[8,44],[2,76],[12,41],[0,43],[53,27],[55,52],[35,24],[37,-1],[9,123],[28,29],[18,36],[35,-10],[94,-14],[36,14],[70,-21],[86,2],[35,17],[49,48],[47,19],[46,28],[28,35],[19,3],[61,-16],[42,20],[3,57],[25,58],[22,103],[-13,72],[1,99],[13,56],[30,37],[24,13],[43,-24],[59,-15],[34,-26],[67,-19],[32,-19],[22,-33],[54,-51],[178,-64],[19,-16],[13,-97],[45,-40],[37,-18],[80,-50],[66,-71],[120,-78],[88,-18],[69,-50],[53,-64],[64,-34],[45,28],[67,11],[57,-6],[161,-35],[58,-23]],[[49980,43046],[-113,-22],[-143,-64],[-11,-14],[8,-67],[-31,-42],[-65,-25],[-19,-23],[1,-68],[-25,-45],[-46,-28],[-33,-42],[-32,-83],[-23,-13],[-77,-4],[-23,-21],[-12,-34],[5,-73],[-14,-21],[-40,-31],[-64,-8],[-37,-21],[-35,-79],[-16,-17],[-55,-21],[-15,-58],[-4,-132],[11,-22],[54,-48]],[[49126,41920],[-47,-24],[-81,6],[-31,11],[-141,30],[-38,-20],[-44,-4],[-46,-22],[-79,0],[-136,-103],[-62,-28],[-135,-101],[-23,15],[-43,107],[-36,36],[-45,8],[-60,-19],[-40,33],[-12,39],[3,51],[-30,32],[-44,-9],[-24,-40],[-31,-7],[-86,-44],[-98,-24],[-18,-19],[-24,-63],[-38,-48],[-47,-25],[-35,-6],[-53,-70],[-30,-20],[-20,-59],[-32,-43],[-149,-28],[-63,-4],[-146,-32],[-69,-4],[-57,-20],[-46,-38],[-14,-45],[-36,-28],[-68,-20],[-49,-33],[-82,-24],[-49,-37],[-128,-58],[5,-31],[-19,-52],[-74,-73],[-46,-37],[-37,-47],[-79,-32],[-49,-1],[-42,23],[-23,1],[-59,-16],[-60,-30]],[[45539,62941],[14,11],[20,77],[41,47],[109,40],[90,-69],[61,19],[91,69],[38,14],[52,-8],[47,1],[160,16],[34,32],[52,35],[34,37],[-5,37],[-24,52],[7,24],[30,51],[-3,70],[31,35],[57,20],[25,26],[31,58],[8,44],[5,122],[24,54],[-2,80],[9,76],[29,56],[46,15],[25,40],[53,45],[-4,77],[5,30],[35,85],[45,54],[6,17],[19,130],[20,41],[6,38],[-28,82],[14,56],[-6,53],[19,28],[40,2],[37,14],[81,41],[46,33],[20,3],[85,-34],[141,-23],[56,-7],[71,-28],[33,7],[95,60],[53,13],[66,-13],[22,-19],[41,-79],[-8,-46],[42,-120],[31,-60],[21,-97],[24,-63],[-6,-36],[-26,-44],[5,-24],[48,-120],[61,-73],[74,-64],[9,-65],[37,-46],[78,-52],[51,-80],[42,-56],[15,-74],[-17,-42],[13,-31],[-27,-65],[-6,-40],[6,-176],[48,-70],[13,-58],[0,-41],[17,-38],[-5,-75],[24,-20],[72,-9],[31,-16],[4,-16],[-33,-71],[21,-79],[12,-11],[54,-17],[19,-26],[12,-44],[39,-77],[29,-14],[31,1],[59,24],[14,-2],[69,-38],[23,-2],[106,21],[53,-11],[59,-24],[21,-47],[114,-10],[104,-1],[131,-31],[75,-22],[105,37],[53,25],[67,-34],[72,-25],[26,-48],[52,-53],[-19,-116],[17,-66],[-43,-55],[70,-31],[30,-46],[52,-46],[-13,-49],[-31,-70],[-12,-76],[-56,-36],[-55,-56],[-47,-74],[19,-35],[41,-30],[135,-116],[77,-36],[25,-54],[12,-67],[9,-13],[103,-63],[13,-39],[31,-53],[28,-69],[4,-49],[20,-64],[-49,13],[-30,-16],[-14,-35],[-8,-64],[-35,-66],[-23,1],[-30,35],[-49,36],[-9,53],[-15,32],[-24,4],[-42,-10],[-27,3],[-53,33],[-28,2],[-6,-19],[47,-103],[-8,-53],[-51,-5],[-20,-12],[-10,-72],[-71,-18],[-104,-54],[-39,-68],[21,-39],[-13,-94],[-43,-31],[-38,-11],[-85,-7],[-30,-14],[-32,-40],[-8,-28],[-1,-72],[-12,-16],[-42,-18],[-14,-30],[-46,-13],[-34,-66],[-41,-104],[-44,-86],[-60,-86],[-23,-77],[-16,-34],[-10,-51],[-47,-53],[-77,-45],[0,-65],[40,-87],[4,-37],[-17,-78],[-25,-27],[-44,-21],[-30,-45],[-5,-125],[-15,-163],[17,-63],[42,-51],[44,-33],[59,-18],[48,-45],[65,-40],[49,-59],[42,-22],[30,-3],[55,32],[33,-10],[36,-35],[39,-56],[14,-78],[11,-13],[81,-48],[40,-66],[42,-25],[102,-30],[39,-31],[6,-27],[4,-93],[49,-77],[29,-77],[38,-84],[28,-83],[53,-70],[62,-57],[40,-62],[-10,-93],[-21,-61],[-5,-42],[5,-85],[16,-17],[77,-23],[87,-32],[44,-25],[36,-3],[113,15],[53,-5],[89,-31],[94,-3],[51,-7],[149,-42],[90,-61],[27,-13],[53,-50],[52,-13],[65,6],[65,27],[66,14],[52,5],[76,33],[36,-21],[32,-42],[48,-42],[13,-23],[26,-78],[18,-108],[6,-142],[-19,-88],[-13,-105],[1,-104],[31,-78],[9,-46],[2,-55],[12,-67],[21,-44],[33,-34],[63,-34],[72,-27],[56,-56],[23,-147],[12,-45],[38,-71],[7,-47],[47,-60],[-4,-67],[-16,-24],[-84,-90],[-101,-127],[-33,-73],[-20,-70],[-56,-89],[-8,-91],[3,-33],[30,-52],[51,-46],[-5,-16],[-70,-54],[-20,-23],[-33,-81],[-26,-46],[-83,-110],[-52,-51],[-101,-39],[-72,-70],[-84,-28],[-37,-31],[-18,-83],[4,-66],[49,-60],[1,-45],[11,-19],[117,-91],[63,-66],[20,-47],[-10,-32],[-34,-63],[-65,-31],[-91,-63],[-94,-39],[-87,-65],[-20,-37],[-65,-51],[-34,-35],[-51,-37],[-19,-78],[10,-44],[6,-200],[143,-77],[50,-23],[42,-28],[66,-73],[40,-30],[142,-79],[88,-79],[94,-91],[23,-107],[60,-87],[13,-48],[26,-48],[85,-119],[79,-32],[53,-43],[-6,-106],[-18,-51],[0,-37],[28,-64],[39,-39],[39,-63],[19,-20],[91,-35],[38,-33],[30,-91],[24,-15],[71,-23],[83,-46],[82,-7],[7,-40],[49,-44],[60,-21],[54,-54],[21,-6],[85,6],[137,-49],[10,-37],[-5,-21],[21,-108],[21,-20],[54,-10],[89,-52],[60,-3],[88,-35],[4,-45],[-6,-46],[16,-74],[0,-44],[25,-45],[21,-19],[75,-24],[57,-49],[72,-16],[7,-12],[-16,-65],[-49,-60],[-21,-40],[-20,-61],[-32,-38],[-23,-59],[-57,-103],[-74,-73],[-48,-26],[-33,-30],[-71,-104],[-68,-115],[-71,-95],[-32,-27],[-86,-38],[-57,-35],[-214,-136],[-82,-45],[-115,-68],[-100,-66],[-108,-58],[-52,-18],[-45,7],[-44,23],[-121,-21],[-80,-1],[-38,-15],[-56,-44],[-50,-3],[-53,27],[-43,12],[-111,19],[-140,18],[-41,-2],[-34,-18],[-33,-35],[-31,-60],[-27,-69],[-36,-34],[-60,-38],[-66,-55],[4,-40],[17,-44],[36,-32],[27,-79],[-24,-33],[-36,-72],[1,-90],[64,-30],[38,-42],[8,-71],[-29,-157],[21,-110],[0,-38],[-17,-45],[-22,-23],[-101,-63],[-50,2],[-43,-14],[-36,-47],[-11,-40],[-26,-49],[16,-54],[0,-69],[8,-19],[66,-64],[-17,-59],[-6,-62],[7,-21],[32,-28],[44,-5],[99,0],[36,9],[42,42],[2,71],[59,22],[31,33],[93,42],[37,-1],[36,-54],[51,-25],[69,29],[69,-19],[149,0],[27,-31],[-4,-23],[-63,-75],[3,-60],[27,-81],[45,-101],[36,-96],[-40,-83],[-89,-89],[-42,-28],[-22,-40],[-37,-37],[-15,-47],[20,-66],[-52,-62],[-14,-43],[33,-83],[0,-30],[-23,-46],[-85,-40],[-14,-16],[-15,-49],[-36,-60],[-33,-43],[-23,-53],[-43,-47],[-16,-39],[17,-34],[-7,-57],[16,-34],[-22,-93],[-19,-24],[-45,-30],[9,-29],[-19,-43],[-110,-21],[-37,-34],[-27,-89],[9,-92],[-18,-28],[-45,-17],[-28,-100],[6,-30],[22,-26],[79,-55],[28,-32],[25,-52],[28,-88],[-5,-48],[-70,-73],[-24,-39],[-14,-43],[8,-91],[-8,-88],[7,-36],[-12,-95],[16,-62],[3,-120],[-4,-67],[-18,-43],[-47,-81],[-40,-43],[-86,-77],[-127,-139],[-43,-24],[-68,-63],[-12,-21],[4,-29],[42,-66],[7,-54],[-4,-34],[-17,-40],[6,-32],[-18,-70],[-3,-54],[-20,-30],[-36,-22],[-51,-43],[-74,-30],[-47,-6],[-54,-22],[-21,-62],[22,-61],[-1,-101],[-9,-17],[-37,-12]],[[35383,34027],[-19,-104],[-6,-57],[12,-50],[31,-49],[29,-3],[45,21],[45,-9],[49,-40],[7,-84],[13,-16],[74,-40],[43,-13],[113,-22],[134,-41],[94,-63],[28,-57],[7,-108],[39,-82],[29,-50],[18,-80],[-5,-63],[-65,-150],[-5,-73],[141,-81],[133,-68],[69,-33],[97,135],[261,-150],[55,-29],[21,26],[188,266],[-70,40],[47,74],[-245,135],[22,30],[-61,39],[-15,26],[-49,44],[85,121],[19,47],[-113,87],[5,24],[-31,18],[31,86],[-11,11],[-120,64],[41,65],[-73,36],[38,64],[-5,10],[-85,38],[19,47],[-3,39],[43,113],[18,6],[17,45],[-42,18],[-103,73],[32,33],[133,-60],[181,-89],[-7,-33],[85,-51],[2,-22],[123,-77],[199,-57],[400,-109],[87,-18],[80,-3],[148,6],[115,-9],[17,-32],[120,-17],[81,-17],[122,-40],[82,-21],[109,-57]],[[38526,33587],[64,-22],[63,-12],[63,-32],[135,-38],[84,-30],[113,-25],[25,-2],[166,-39],[109,-31],[42,-23],[35,-31],[63,-34],[41,-51],[36,-20],[51,-14],[121,-1],[36,-7],[84,7],[103,-37],[26,-19],[16,-37],[-5,-48],[23,-63],[-23,-49],[-35,-37],[0,-26],[29,-9],[70,23],[103,-26],[35,34],[55,18],[42,-18],[51,19],[77,-24],[6,34],[58,3],[89,-28],[102,-13],[75,-21],[47,10],[80,37],[81,76],[74,32],[78,13],[35,25],[24,37],[32,7]],[[41205,33095],[73,-25],[69,-58],[3,-28],[42,-52],[11,-30],[-6,-103],[4,-44],[22,-67],[20,-84],[-16,-53],[29,-97],[37,-47],[10,-28],[0,-73],[10,-30],[23,-18],[58,-17],[26,-35],[1,-19],[-25,-52],[-7,-71],[12,-41],[-9,-46],[-16,-15],[-5,-39],[-19,-63],[30,-52],[39,-1],[20,-47],[30,-8],[17,-28],[74,12],[29,-11],[57,2],[35,11],[93,11],[49,-78],[-4,-27],[33,-32],[55,-26],[15,-22],[59,-41],[81,-4],[78,-8],[37,-43],[70,-22],[60,-40],[13,-31],[67,-76],[12,-58],[37,-45],[8,-48],[29,-75],[20,-38],[1,-49],[45,-13],[16,-50],[41,-60],[39,-31],[70,-39],[58,-16],[47,-31],[83,14],[70,45],[34,7],[67,-19],[85,-1],[72,-24],[51,-6],[49,-48],[42,-2],[26,16],[75,-14],[26,9],[49,-9],[62,5],[36,-13],[39,-46],[17,-7],[61,39],[19,19],[77,23],[55,-16],[66,-50],[11,-42],[-6,-47],[9,-23],[46,-36],[83,-33],[89,-43],[72,-53],[3,-70],[71,-50],[15,-47],[84,-39],[-50,-96],[5,-31],[29,-25],[-6,-66],[36,-29],[79,-80],[13,-27],[-16,-51],[1,-30]],[[37065,35649],[52,-30],[337,-167],[44,-40],[148,-67],[-82,-147],[68,-29],[-218,-390],[182,-86],[-113,-203],[-21,-23],[79,-37],[-42,-75],[193,-98],[37,-12],[202,-89],[-37,-65],[90,-39],[119,202],[299,-135],[31,52],[70,-21],[23,-18],[-14,-69],[31,-26],[-12,-39],[25,-32],[-2,-64],[5,-50],[-12,-25],[-13,-73],[57,-33],[-65,-134]],[[38640,36961],[180,-176],[52,-48],[253,-179],[136,-103],[56,-57],[97,-117],[126,-114],[134,-145],[168,-164],[55,-75],[161,-278],[15,-36],[50,-140],[33,-68],[70,-105],[58,-102],[114,-124],[105,-105],[129,-116],[94,-62],[45,-15],[84,-14],[91,-22],[149,-43],[3,-11],[-163,-15],[-44,-85],[-36,-49],[-31,-27],[38,-28],[113,-115],[-43,-45],[46,-4],[41,-19],[49,-1],[23,-11],[41,-71],[-2,-71],[72,-62],[18,-35],[-10,-95],[-127,-50],[-50,-44],[-9,-36],[18,-37],[-7,-34],[-22,-47],[-1,-39],[14,-42],[39,-41],[37,-22],[19,-87],[21,-37],[-5,-31],[11,-51],[42,-44],[15,-72]],[[49126,41920],[105,-77],[14,-17],[66,-135],[50,-81],[-31,-36],[13,-56],[96,-119],[18,-60],[-22,-111],[0,-37],[11,-23],[-4,-56],[6,-235],[-10,-60],[-15,-44],[-32,-34],[-31,-75],[-21,-101],[16,-59],[-7,-96],[18,-89],[3,-89],[-45,-84],[-18,-56],[4,-39],[31,-43],[-2,-43],[-58,-105],[-14,-67],[68,-168],[-1,-54],[11,-26],[30,-17],[96,-36],[62,-37],[2,-16],[-26,-49],[-28,-36],[-139,-137],[-26,-62],[-24,-39],[8,-32],[-32,-15],[-54,-45],[-45,-53],[-71,-73],[-90,-48],[-28,-33],[-56,-50],[-34,-15],[-108,-10],[-35,-17],[-111,-69],[-27,-10],[-83,2],[-46,7],[-87,-18],[-50,-5],[-31,11],[-24,27],[-32,-10],[-26,-27],[-83,-57],[-7,-10],[-22,-121],[-19,-27],[1,-27],[32,-27],[-6,-50],[-65,-57],[-61,-26],[-6,-13],[23,-32],[55,-20],[34,-22],[27,-85],[55,-37],[50,-17],[83,-18],[67,-7],[53,-45],[26,-7],[33,-25],[6,-28],[63,-71],[36,-89],[20,-26],[16,-64],[0,-71],[12,-24],[114,-39],[95,-10],[38,-22],[82,12],[116,-3],[53,-17],[50,-68],[27,-84],[48,-77],[12,-69],[-29,-25],[-39,-10],[-41,-31],[31,-18],[122,-36],[48,-7],[39,-26],[57,-9],[46,-23],[78,-29],[57,-3],[14,-9],[27,-69],[7,-92],[35,-20],[96,10],[30,-20],[39,-55],[42,-4],[63,33],[25,-6],[64,-72],[49,-36],[58,11],[62,-8],[48,-33],[44,-5],[60,4],[53,-48],[139,-138],[0,-31],[32,-30],[44,-63],[35,-78],[-16,-48],[18,-10],[135,-18],[96,-37],[44,-47],[24,-93],[2,-81],[50,-36],[11,-27],[-38,-196],[-19,-76],[16,-83],[2,-79],[12,-31],[-2,-98],[-40,-88],[17,-100],[10,-20],[47,-33],[35,-11],[24,-41],[25,-20],[2,-25],[-33,-38],[-21,-50],[-58,-16],[-34,-24],[-68,-29],[-61,-94],[-27,-76],[-23,-30],[-6,-49],[0,-89],[-34,-89],[-31,-53],[-22,-22],[24,-106],[-3,-73],[-14,-146],[-51,-62],[-53,-41],[-43,-94],[-57,-70],[-52,-104],[-42,-15],[-19,-26]]],"transform":{"scale":[0.000012783346524400186,0.000011844998638008652],"translate":[135.76373942,34.79057083]},"objects":{"city":{"type":"GeometryCollection","geometries":[{"arcs":[[0,1,2,3,4,5,6,7,8]],"type":"Polygon","properties":{"N03_001":"滋賀県","N03_004":"大津市","PREF_CODE":"25","MERGED_CODE":"25201","N03_007":"25201"},"id":"25201"},{"arcs":[[9,10,11,12,13,14,15,16,17]],"type":"Polygon","properties":{"N03_001":"滋賀県","N03_004":"彦根市","PREF_CODE":"25","MERGED_CODE":"25202","N03_007":"25202"},"id":"25202"},{"arcs":[[18,19,-12,20]],"type":"Polygon","properties":{"N03_001":"滋賀県","N03_004":"長浜市","PREF_CODE":"25","MERGED_CODE":"25203","N03_007":"25203"},"id":"25203"},{"arcs":[[-3,21,-10,22,23,24]],"type":"Polygon","properties":{"N03_001":"滋賀県","N03_004":"近江八幡市","PREF_CODE":"25","MERGED_CODE":"25204","N03_007":"25204"},"id":"25204"},{"arcs":[[-6,25,26]],"type":"Polygon","properties":{"N03_001":"滋賀県","N03_004":"草津市","PREF_CODE":"25","MERGED_CODE":"25206","N03_007":"25206"},"id":"25206"},{"arcs":[[-5,27,28,-26]],"type":"Polygon","properties":{"N03_001":"滋賀県","N03_004":"守山市","PREF_CODE":"25","MERGED_CODE":"25207","N03_007":"25207"},"id":"25207"},{"arcs":[[-7,-27,-29,29,30,31]],"type":"Polygon","properties":{"N03_001":"滋賀県","N03_004":"栗東市","PREF_CODE":"25","MERGED_CODE":"25208","N03_007":"25208"},"id":"25208"},{"arcs":[[32,-8,-32,33,34,35,36,37,38]],"type":"Polygon","properties":{"N03_001":"滋賀県","N03_004":"甲賀市","PREF_CODE":"25","MERGED_CODE":"25209","N03_007":"25209"},"id":"25209"},{"arcs":[[-4,-25,39,40,-30,-28]],"type":"Polygon","properties":{"N03_001":"滋賀県","N03_004":"野洲市","PREF_CODE":"25","MERGED_CODE":"25210","N03_007":"25210"},"id":"25210"},{"arcs":[[-31,-41,41,-34]],"type":"Polygon","properties":{"N03_001":"滋賀県","N03_004":"湖南市","PREF_CODE":"25","MERGED_CODE":"25211","N03_007":"25211"},"id":"25211"},{"arcs":[[42,-21,-11,-22,-2,43]],"type":"Polygon","properties":{"N03_001":"滋賀県","N03_004":"高島市","PREF_CODE":"25","MERGED_CODE":"25212","N03_007":"25212"},"id":"25212"},{"arcs":[[44,-38,45,-36,46,-23,-18,47,48]],"type":"Polygon","properties":{"N03_001":"滋賀県","N03_004":"東近江市","PREF_CODE":"25","MERGED_CODE":"25213","N03_007":"25213"},"id":"25213"},{"arcs":[[49,50,-13,-20,51]],"type":"Polygon","properties":{"N03_001":"滋賀県","N03_004":"米原市","PREF_CODE":"25","MERGED_CODE":"25214","N03_007":"25214"},"id":"25214"},{"arcs":[[-37,-46]],"type":"Polygon","properties":{"N03_001":"滋賀県","N03_004":"日野町","PREF_CODE":"25","MERGED_CODE":"25383","N03_007":"25383"},"id":"25383"},{"arcs":[[-24,-47,-35,-42,-40]],"type":"Polygon","properties":{"N03_001":"滋賀県","N03_004":"竜王町","PREF_CODE":"25","MERGED_CODE":"25384","N03_007":"25384"},"id":"25384"},{"arcs":[[-17,52,53,54,-48]],"type":"Polygon","properties":{"N03_001":"滋賀県","N03_004":"愛荘町","PREF_CODE":"25","MERGED_CODE":"25425","N03_007":"25425"},"id":"25425"},{"arcs":[[-16,55,-53]],"type":"Polygon","properties":{"N03_001":"滋賀県","N03_004":"豊郷町","PREF_CODE":"25","MERGED_CODE":"25441","N03_007":"25441"},"id":"25441"},{"arcs":[[-15,56,-54,-56]],"type":"Polygon","properties":{"N03_001":"滋賀県","N03_004":"甲良町","PREF_CODE":"25","MERGED_CODE":"25442","N03_007":"25442"},"id":"25442"},{"arcs":[[57,-49,-55,-57,-14,-51]],"type":"Polygon","properties":{"N03_001":"滋賀県","N03_004":"多賀町","PREF_CODE":"25","MERGED_CODE":"25443","N03_007":"25443"},"id":"25443"}]}}}